{"type": "FeatureCollection", "features": [{"type": "Feature", "properties": {"code": "55039", "apl": null, "pop": 0, "communeName": "Beaumont-en-Verdunois", "dept": "55", "category": "no-data"}, "geometry": {"type": "Polygon", "coordinates": [[[5.413, 49.281], [5.425, 49.276], [5.431, 49.262], [5.426, 49.25], [5.375, 49.254], [5.376, 49.255], [5.38, 49.256], [5.406, 49.276], [5.413, 49.281]]]}}, {"type": "Feature", "properties": {"code": "55050", "apl": null, "pop": 0, "communeName": "Bezonvaux", "dept": "55", "category": "no-data"}, "geometry": {"type": "Polygon", "coordinates": [[[5.479, 49.219], [5.448, 49.217], [5.442, 49.236], [5.481, 49.245], [5.508, 49.238], [5.479, 49.219]]]}}, {"type": "Feature", "properties": {"code": "55139", "apl": null, "pop": 0, "communeName": "Cumières-le-Mort-Homme", "dept": "55", "category": "no-data"}, "geometry": {"type": "Polygon", "coordinates": [[[5.226, 49.233], [5.25, 49.236], [5.3, 49.248], [5.303, 49.243], [5.289, 49.232], [5.233, 49.224], [5.226, 49.233]]]}}, {"type": "Feature", "properties": {"code": "55189", "apl": null, "pop": 0, "communeName": "Fleury-devant-Douaumont", "dept": "55", "category": "no-data"}, "geometry": {"type": "Polygon", "coordinates": [[[5.463, 49.192], [5.483, 49.188], [5.44, 49.174], [5.439, 49.174], [5.403, 49.189], [5.42, 49.207], [5.447, 49.214], [5.463, 49.192]]]}}, {"type": "Feature", "properties": {"code": "55239", "apl": null, "pop": 0, "communeName": "Haumont-près-Samogneux", "dept": "55", "category": "no-data"}, "geometry": {"type": "Polygon", "coordinates": [[[5.38, 49.256], [5.339, 49.271], [5.35, 49.296], [5.35, 49.296], [5.406, 49.276], [5.38, 49.256]]]}}, {"type": "Feature", "properties": {"code": "55307", "apl": null, "pop": 0, "communeName": "Louvemont-Côte-du-Poivre", "dept": "55", "category": "no-data"}, "geometry": {"type": "Polygon", "coordinates": [[[5.372, 49.246], [5.375, 49.254], [5.426, 49.25], [5.422, 49.234], [5.414, 49.226], [5.391, 49.23], [5.372, 49.246]]]}}]}