{"type": "FeatureCollection", "features": [{"type": "Feature", "properties": {"code": "55002", "apl": 3.62, "pop": 99, "communeName": "Abaucourt-Hautecourt", "dept": "55", "category": "adequate"}, "geometry": {"type": "Polygon", "coordinates": [[[5.519, 49.185], [5.508, 49.197], [5.529, 49.204], [5.562, 49.214], [5.587, 49.196], [5.569, 49.187], [5.519, 49.185]]]}}, {"type": "Feature", "properties": {"code": "55004", "apl": 2.42, "pop": 81, "communeName": "Aincreville", "dept": "55", "category": "desert"}, "geometry": {"type": "Polygon", "coordinates": [[[5.117, 49.347], [5.089, 49.37], [5.104, 49.39], [5.129, 49.384], [5.133, 49.381], [5.138, 49.366], [5.117, 49.347]]]}}, {"type": "Feature", "properties": {"code": "55007", "apl": 2.83, "pop": 237, "communeName": "Ambly-sur-Meuse", "dept": "55", "category": "adequate"}, "geometry": {"type": "Polygon", "coordinates": [[[5.473, 49.017], [5.445, 49.012], [5.426, 49.019], [5.426, 49.03], [5.468, 49.033], [5.469, 49.033], [5.473, 49.017]]]}}, {"type": "Feature", "properties": {"code": "55008", "apl": 3.72, "pop": 147, "communeName": "Amel-sur-l'Étang", "dept": "55", "category": "adequate"}, "geometry": {"type": "Polygon", "coordinates": [[[5.669, 49.235], [5.641, 49.244], [5.61, 49.257], [5.664, 49.28], [5.668, 49.255], [5.687, 49.242], [5.669, 49.235]]]}}, {"type": "Feature", "properties": {"code": "55009", "apl": 3.73, "pop": 535, "communeName": "Ancemont", "dept": "55", "category": "adequate"}, "geometry": {"type": "Polygon", "coordinates": [[[5.36, 49.081], [5.405, 49.094], [5.414, 49.068], [5.35, 49.034], [5.346, 49.034], [5.376, 49.056], [5.36, 49.081]]]}}, {"type": "Feature", "properties": {"code": "55013", "apl": 3.76, "pop": 464, "communeName": "Arrancy-sur-Crusnes", "dept": "55", "category": "adequate"}, "geometry": {"type": "Polygon", "coordinates": [[[5.607, 49.419], [5.634, 49.438], [5.677, 49.419], [5.692, 49.402], [5.687, 49.394], [5.654, 49.388], [5.613, 49.409], [5.607, 49.419]]]}}, {"type": "Feature", "properties": {"code": "55014", "apl": 4.81, "pop": 358, "communeName": "Aubréville", "dept": "55", "category": "well-served"}, "geometry": {"type": "Polygon", "coordinates": [[[5.031, 49.138], [5.036, 49.148], [5.087, 49.16], [5.102, 49.183], [5.116, 49.196], [5.151, 49.186], [5.16, 49.178], [5.152, 49.175], [5.133, 49.169], [5.096, 49.125], [5.072, 49.124], [5.031, 49.138]]]}}, {"type": "Feature", "properties": {"code": "55017", "apl": 3.5, "pop": 115, "communeName": "Autrécourt-sur-Aire", "dept": "55", "category": "adequate"}, "geometry": {"type": "Polygon", "coordinates": [[[5.184, 49.044], [5.185, 49.035], [5.14, 49.024], [5.128, 49.01], [5.117, 49.013], [5.101, 49.036], [5.123, 49.044], [5.184, 49.044]]]}}, {"type": "Feature", "properties": {"code": "55021", "apl": 2.64, "pop": 74, "communeName": "Avillers-Sainte-Croix", "dept": "55", "category": "adequate"}, "geometry": {"type": "Polygon", "coordinates": [[[5.708, 49.018], [5.684, 49.033], [5.681, 49.035], [5.695, 49.052], [5.713, 49.047], [5.723, 49.021], [5.708, 49.018]]]}}, {"type": "Feature", "properties": {"code": "55023", "apl": 2.2, "pop": 121, "communeName": "Avocourt", "dept": "55", "category": "desert"}, "geometry": {"type": "Polygon", "coordinates": [[[5.165, 49.192], [5.151, 49.186], [5.116, 49.196], [5.101, 49.203], [5.116, 49.21], [5.127, 49.221], [5.141, 49.221], [5.175, 49.215], [5.165, 49.192]]]}}, {"type": "Feature", "properties": {"code": "55024", "apl": 2.36, "pop": 161, "communeName": "Azannes-et-Soumazannes", "dept": "55", "category": "desert"}, "geometry": {"type": "Polygon", "coordinates": [[[5.499, 49.314], [5.515, 49.314], [5.517, 49.304], [5.457, 49.273], [5.431, 49.262], [5.425, 49.276], [5.446, 49.302], [5.449, 49.309], [5.499, 49.314]]]}}, {"type": "Feature", "properties": {"code": "55025", "apl": 3.07, "pop": 276, "communeName": "Baâlon", "dept": "55", "category": "adequate"}, "geometry": {"type": "Polygon", "coordinates": [[[5.263, 49.499], [5.264, 49.487], [5.301, 49.47], [5.296, 49.462], [5.26, 49.462], [5.228, 49.483], [5.238, 49.508], [5.263, 49.499]]]}}, {"type": "Feature", "properties": {"code": "55027", "apl": 3.24, "pop": 161, "communeName": "Bannoncourt", "dept": "55", "category": "adequate"}, "geometry": {"type": "Polygon", "coordinates": [[[5.499, 48.946], [5.498, 48.944], [5.462, 48.938], [5.451, 48.945], [5.493, 48.974], [5.512, 48.955], [5.499, 48.946]]]}}, {"type": "Feature", "properties": {"code": "55028", "apl": 2.76, "pop": 106, "communeName": "Bantheville", "dept": "55", "category": "adequate"}, "geometry": {"type": "Polygon", "coordinates": [[[5.117, 49.347], [5.118, 49.347], [5.107, 49.344], [5.028, 49.332], [5.06, 49.372], [5.089, 49.37], [5.117, 49.347]]]}}, {"type": "Feature", "properties": {"code": "55033", "apl": 2.52, "pop": 19, "communeName": "Baulny", "dept": "55", "category": "adequate"}, "geometry": {"type": "Polygon", "coordinates": [[[5.011, 49.269], [5.051, 49.274], [5.051, 49.267], [5.018, 49.258], [5, 49.261], [5.011, 49.269]]]}}, {"type": "Feature", "properties": {"code": "55036", "apl": 4.17, "pop": 94, "communeName": "Beauclair", "dept": "55", "category": "well-served"}, "geometry": {"type": "Polygon", "coordinates": [[[5.103, 49.46], [5.101, 49.461], [5.13, 49.465], [5.147, 49.469], [5.144, 49.458], [5.108, 49.444], [5.122, 49.43], [5.106, 49.428], [5.103, 49.46]]]}}, {"type": "Feature", "properties": {"code": "55037", "apl": 4.17, "pop": 133, "communeName": "Beaufort-en-Argonne", "dept": "55", "category": "well-served"}, "geometry": {"type": "Polygon", "coordinates": [[[5.08, 49.486], [5.112, 49.5], [5.141, 49.483], [5.13, 49.465], [5.101, 49.461], [5.083, 49.471], [5.08, 49.486]]]}}, {"type": "Feature", "properties": {"code": "55038", "apl": 1.56, "pop": 39, "communeName": "Beaulieu-en-Argonne", "dept": "55", "category": "desert"}, "geometry": {"type": "Polygon", "coordinates": [[[5.036, 49.021], [5.035, 49.023], [5.009, 49.035], [4.967, 49.021], [4.965, 49.022], [5.006, 49.06], [5.023, 49.072], [5.032, 49.066], [5.085, 49.065], [5.102, 49.049], [5.094, 49.036], [5.078, 49.025], [5.066, 49.02], [5.036, 49.021]]]}}, {"type": "Feature", "properties": {"code": "55040", "apl": 3.06, "pop": 255, "communeName": "Beausite", "dept": "55", "category": "adequate"}, "geometry": {"type": "Polygon", "coordinates": [[[5.251, 48.991], [5.25, 48.983], [5.265, 48.952], [5.221, 48.954], [5.192, 48.937], [5.171, 48.956], [5.167, 48.978], [5.223, 48.992], [5.251, 48.991]]]}}, {"type": "Feature", "properties": {"code": "55042", "apl": 4.23, "pop": 507, "communeName": "Belleray", "dept": "55", "category": "well-served"}, "geometry": {"type": "Polygon", "coordinates": [[[5.4, 49.14], [5.41, 49.123], [5.374, 49.133], [5.354, 49.123], [5.336, 49.113], [5.357, 49.134], [5.4, 49.14]]]}}, {"type": "Feature", "properties": {"code": "55043", "apl": 3.62, "pop": 3021, "communeName": "Belleville-sur-Meuse", "dept": "55", "category": "adequate"}, "geometry": {"type": "Polygon", "coordinates": [[[5.38, 49.172], [5.349, 49.182], [5.363, 49.192], [5.403, 49.189], [5.439, 49.174], [5.38, 49.172]]]}}, {"type": "Feature", "properties": {"code": "55045", "apl": 4.32, "pop": 545, "communeName": "Belrupt-en-Verdunois", "dept": "55", "category": "well-served"}, "geometry": {"type": "Polygon", "coordinates": [[[5.431, 49.165], [5.486, 49.143], [5.475, 49.138], [5.463, 49.135], [5.41, 49.144], [5.431, 49.165]]]}}, {"type": "Feature", "properties": {"code": "55047", "apl": 2.48, "pop": 160, "communeName": "Béthelainville", "dept": "55", "category": "desert"}, "geometry": {"type": "Polygon", "coordinates": [[[5.183, 49.166], [5.189, 49.171], [5.262, 49.184], [5.256, 49.157], [5.223, 49.156], [5.183, 49.166]]]}}, {"type": "Feature", "properties": {"code": "55048", "apl": 0.64, "pop": 43, "communeName": "Béthincourt", "dept": "55", "category": "severe"}, "geometry": {"type": "Polygon", "coordinates": [[[5.25, 49.236], [5.226, 49.233], [5.211, 49.228], [5.189, 49.257], [5.214, 49.268], [5.244, 49.266], [5.25, 49.236]]]}}, {"type": "Feature", "properties": {"code": "55053", "apl": 3.03, "pop": 366, "communeName": "Billy-sous-Mangiennes", "dept": "55", "category": "adequate"}, "geometry": {"type": "Polygon", "coordinates": [[[5.615, 49.328], [5.602, 49.314], [5.556, 49.308], [5.547, 49.292], [5.517, 49.304], [5.515, 49.314], [5.541, 49.339], [5.578, 49.351], [5.59, 49.348], [5.591, 49.348], [5.615, 49.328]]]}}, {"type": "Feature", "properties": {"code": "55055", "apl": 2.3, "pop": 13, "communeName": "Blanzée", "dept": "55", "category": "desert"}, "geometry": {"type": "Polygon", "coordinates": [[[5.554, 49.165], [5.55, 49.156], [5.51, 49.155], [5.53, 49.168], [5.554, 49.165]]]}}, {"type": "Feature", "properties": {"code": "55057", "apl": 3.57, "pop": 78, "communeName": "Boinville-en-Woëvre", "dept": "55", "category": "adequate"}, "geometry": {"type": "Polygon", "coordinates": [[[5.695, 49.2], [5.7, 49.194], [5.691, 49.176], [5.657, 49.187], [5.667, 49.198], [5.695, 49.2]]]}}, {"type": "Feature", "properties": {"code": "55060", "apl": 2.1, "pop": 360, "communeName": "Bonzée", "dept": "55", "category": "desert"}, "geometry": {"type": "Polygon", "coordinates": [[[5.531, 49.069], [5.525, 49.095], [5.577, 49.11], [5.612, 49.1], [5.616, 49.088], [5.594, 49.079], [5.557, 49.072], [5.531, 49.069]]]}}, {"type": "Feature", "properties": {"code": "55063", "apl": 3.37, "pop": 2435, "communeName": "Bouligny", "dept": "55", "category": "adequate"}, "geometry": {"type": "Polygon", "coordinates": [[[5.75, 49.31], [5.757, 49.315], [5.763, 49.314], [5.768, 49.3], [5.761, 49.28], [5.725, 49.27], [5.716, 49.291], [5.75, 49.31]]]}}, {"type": "Feature", "properties": {"code": "55064", "apl": 4.71, "pop": 113, "communeName": "Bouquemont", "dept": "55", "category": "well-served"}, "geometry": {"type": "Polygon", "coordinates": [[[5.409, 48.968], [5.39, 48.972], [5.455, 49], [5.461, 48.988], [5.409, 48.968]]]}}, {"type": "Feature", "properties": {"code": "55065", "apl": 4.1, "pop": 115, "communeName": "Boureuilles", "dept": "55", "category": "well-served"}, "geometry": {"type": "Polygon", "coordinates": [[[5.03, 49.176], [5.01, 49.197], [4.942, 49.187], [4.991, 49.211], [5.04, 49.221], [5.054, 49.206], [5.102, 49.183], [5.03, 49.176]]]}}, {"type": "Feature", "properties": {"code": "55068", "apl": 3.09, "pop": 104, "communeName": "Brabant-en-Argonne", "dept": "55", "category": "adequate"}, "geometry": {"type": "Polygon", "coordinates": [[[5.141, 49.102], [5.116, 49.122], [5.14, 49.137], [5.17, 49.13], [5.185, 49.124], [5.162, 49.122], [5.141, 49.102]]]}}, {"type": "Feature", "properties": {"code": "55070", "apl": 2.09, "pop": 117, "communeName": "Brabant-sur-Meuse", "dept": "55", "category": "desert"}, "geometry": {"type": "Polygon", "coordinates": [[[5.339, 49.271], [5.323, 49.263], [5.315, 49.266], [5.301, 49.273], [5.35, 49.296], [5.339, 49.271]]]}}, {"type": "Feature", "properties": {"code": "55071", "apl": 3.45, "pop": 178, "communeName": "Brandeville", "dept": "55", "category": "adequate"}, "geometry": {"type": "Polygon", "coordinates": [[[5.277, 49.37], [5.273, 49.374], [5.319, 49.416], [5.324, 49.413], [5.345, 49.411], [5.312, 49.377], [5.277, 49.37]]]}}, {"type": "Feature", "properties": {"code": "55072", "apl": 4.79, "pop": 106, "communeName": "Braquis", "dept": "55", "category": "well-served"}, "geometry": {"type": "Polygon", "coordinates": [[[5.646, 49.163], [5.639, 49.144], [5.605, 49.156], [5.631, 49.168], [5.646, 49.163]]]}}, {"type": "Feature", "properties": {"code": "55073", "apl": 3.01, "pop": 677, "communeName": "Bras-sur-Meuse", "dept": "55", "category": "adequate"}, "geometry": {"type": "Polygon", "coordinates": [[[5.42, 49.207], [5.403, 49.189], [5.363, 49.192], [5.364, 49.219], [5.391, 49.23], [5.414, 49.226], [5.42, 49.207]]]}}, {"type": "Feature", "properties": {"code": "55076", "apl": 2.6, "pop": 180, "communeName": "Bréhéville", "dept": "55", "category": "adequate"}, "geometry": {"type": "Polygon", "coordinates": [[[5.325, 49.366], [5.309, 49.354], [5.274, 49.363], [5.277, 49.37], [5.312, 49.377], [5.345, 49.411], [5.356, 49.412], [5.378, 49.402], [5.388, 49.399], [5.325, 49.366]]]}}, {"type": "Feature", "properties": {"code": "55078", "apl": 1.36, "pop": 303, "communeName": "Brieulles-sur-Meuse", "dept": "55", "category": "desert"}, "geometry": {"type": "Polygon", "coordinates": [[[5.159, 49.299], [5.126, 49.319], [5.133, 49.343], [5.142, 49.345], [5.181, 49.357], [5.201, 49.335], [5.192, 49.311], [5.171, 49.305], [5.159, 49.299]]]}}, {"type": "Feature", "properties": {"code": "55081", "apl": 2.45, "pop": 61, "communeName": "Brizeaux", "dept": "55", "category": "desert"}, "geometry": {"type": "Polygon", "coordinates": [[[5.066, 49.02], [5.075, 48.992], [5.032, 49.001], [5.036, 49.021], [5.066, 49.02]]]}}, {"type": "Feature", "properties": {"code": "55082", "apl": 3.09, "pop": 46, "communeName": "Brocourt-en-Argonne", "dept": "55", "category": "adequate"}, "geometry": {"type": "Polygon", "coordinates": [[[5.197, 49.11], [5.195, 49.11], [5.141, 49.102], [5.162, 49.122], [5.185, 49.124], [5.197, 49.126], [5.202, 49.123], [5.197, 49.11]]]}}, {"type": "Feature", "properties": {"code": "55093", "apl": 2.75, "pop": 274, "communeName": "Buxières-sous-les-Côtes", "dept": "55", "category": "adequate"}, "geometry": {"type": "Polygon", "coordinates": [[[5.733, 48.912], [5.735, 48.9], [5.704, 48.888], [5.688, 48.893], [5.634, 48.881], [5.632, 48.904], [5.658, 48.932], [5.658, 48.931], [5.728, 48.922], [5.733, 48.912]]]}}, {"type": "Feature", "properties": {"code": "55094", "apl": 4.27, "pop": 532, "communeName": "Buzy-Darmont", "dept": "55", "category": "well-served"}, "geometry": {"type": "Polygon", "coordinates": [[[5.723, 49.199], [5.75, 49.199], [5.717, 49.165], [5.694, 49.144], [5.676, 49.146], [5.691, 49.176], [5.7, 49.194], [5.723, 49.199]]]}}, {"type": "Feature", "properties": {"code": "55096", "apl": 5.21, "pop": 109, "communeName": "Chaillon", "dept": "55", "category": "well-served"}, "geometry": {"type": "Polygon", "coordinates": [[[5.696, 48.954], [5.658, 48.931], [5.658, 48.932], [5.608, 48.955], [5.642, 48.968], [5.662, 48.951], [5.696, 48.954]]]}}, {"type": "Feature", "properties": {"code": "55099", "apl": 1.8, "pop": 123, "communeName": "Champneuville", "dept": "55", "category": "desert"}, "geometry": {"type": "Polygon", "coordinates": [[[5.375, 49.254], [5.372, 49.246], [5.341, 49.225], [5.304, 49.221], [5.297, 49.223], [5.289, 49.232], [5.303, 49.243], [5.327, 49.25], [5.376, 49.255], [5.375, 49.254]]]}}, {"type": "Feature", "properties": {"code": "55102", "apl": 3.74, "pop": 525, "communeName": "Charny-sur-Meuse", "dept": "55", "category": "adequate"}, "geometry": {"type": "Polygon", "coordinates": [[[5.314, 49.22], [5.364, 49.219], [5.363, 49.192], [5.349, 49.182], [5.33, 49.191], [5.314, 49.22]]]}}, {"type": "Feature", "properties": {"code": "55103", "apl": 1.65, "pop": 22, "communeName": "Charpentry", "dept": "55", "category": "desert"}, "geometry": {"type": "Polygon", "coordinates": [[[5.065, 49.257], [5.05, 49.251], [5.042, 49.247], [5.025, 49.25], [5.018, 49.258], [5.051, 49.267], [5.065, 49.257]]]}}, {"type": "Feature", "properties": {"code": "55105", "apl": 3.22, "pop": 175, "communeName": "Châtillon-sous-les-Côtes", "dept": "55", "category": "adequate"}, "geometry": {"type": "Polygon", "coordinates": [[[5.486, 49.143], [5.51, 49.155], [5.55, 49.156], [5.549, 49.153], [5.508, 49.121], [5.496, 49.121], [5.475, 49.138], [5.486, 49.143]]]}}, {"type": "Feature", "properties": {"code": "55106", "apl": 1.61, "pop": 176, "communeName": "Chattancourt", "dept": "55", "category": "desert"}, "geometry": {"type": "Polygon", "coordinates": [[[5.297, 49.223], [5.273, 49.199], [5.242, 49.206], [5.233, 49.224], [5.289, 49.232], [5.297, 49.223]]]}}, {"type": "Feature", "properties": {"code": "55107", "apl": 3.54, "pop": 47, "communeName": "Chaumont-devant-Damvillers", "dept": "55", "category": "adequate"}, "geometry": {"type": "Polygon", "coordinates": [[[5.449, 49.309], [5.446, 49.302], [5.419, 49.301], [5.407, 49.317], [5.443, 49.318], [5.449, 49.309]]]}}, {"type": "Feature", "properties": {"code": "55108", "apl": 5.38, "pop": 121, "communeName": "Chaumont-sur-Aire", "dept": "55", "category": "well-served"}, "geometry": {"type": "Polygon", "coordinates": [[[5.308, 48.928], [5.278, 48.905], [5.235, 48.924], [5.27, 48.941], [5.308, 48.928]]]}}, {"type": "Feature", "properties": {"code": "55113", "apl": 2.22, "pop": 155, "communeName": "Cheppy", "dept": "55", "category": "desert"}, "geometry": {"type": "Polygon", "coordinates": [[[5.116, 49.21], [5.101, 49.203], [5.08, 49.215], [5.054, 49.206], [5.04, 49.221], [5.042, 49.247], [5.05, 49.251], [5.084, 49.239], [5.116, 49.21]]]}}, {"type": "Feature", "properties": {"code": "55115", "apl": 1.54, "pop": 45, "communeName": "Cierges-sous-Montfaucon", "dept": "55", "category": "desert"}, "geometry": {"type": "Polygon", "coordinates": [[[5.059, 49.29], [5.057, 49.293], [5.087, 49.311], [5.109, 49.317], [5.117, 49.315], [5.11, 49.288], [5.059, 49.29]]]}}, {"type": "Feature", "properties": {"code": "55116", "apl": 4.25, "pop": 50, "communeName": "Le Claon", "dept": "55", "category": "well-served"}, "geometry": {"type": "Polygon", "coordinates": [[[4.966, 49.158], [5.02, 49.144], [4.988, 49.135], [4.975, 49.133], [4.964, 49.155], [4.966, 49.158]]]}}, {"type": "Feature", "properties": {"code": "55117", "apl": 5.29, "pop": 1438, "communeName": "Clermont-en-Argonne", "dept": "55", "category": "well-served"}, "geometry": {"type": "Polygon", "coordinates": [[[4.99, 49.125], [4.988, 49.135], [5.02, 49.144], [5.031, 49.138], [5.072, 49.124], [5.096, 49.125], [5.133, 49.169], [5.152, 49.175], [5.136, 49.155], [5.14, 49.137], [5.116, 49.122], [5.141, 49.102], [5.195, 49.11], [5.197, 49.093], [5.145, 49.081], [5.111, 49.091], [5.032, 49.066], [5.023, 49.072], [5.004, 49.092], [5.033, 49.106], [4.99, 49.125]]]}}, {"type": "Feature", "properties": {"code": "55118", "apl": 0.72, "pop": 91, "communeName": "Cléry-le-Grand", "dept": "55", "category": "severe"}, "geometry": {"type": "Polygon", "coordinates": [[[5.118, 49.347], [5.117, 49.347], [5.138, 49.366], [5.133, 49.381], [5.166, 49.372], [5.142, 49.345], [5.133, 49.343], [5.118, 49.347]]]}}, {"type": "Feature", "properties": {"code": "55119", "apl": 1.9, "pop": 188, "communeName": "Cléry-le-Petit", "dept": "55", "category": "desert"}, "geometry": {"type": "Polygon", "coordinates": [[[5.19, 49.372], [5.181, 49.357], [5.142, 49.345], [5.166, 49.372], [5.183, 49.384], [5.19, 49.372]]]}}, {"type": "Feature", "properties": {"code": "55121", "apl": 3.07, "pop": 112, "communeName": "Combres-sous-les-Côtes", "dept": "55", "category": "adequate"}, "geometry": {"type": "Polygon", "coordinates": [[[5.642, 49.06], [5.618, 49.05], [5.599, 49.054], [5.615, 49.07], [5.628, 49.077], [5.642, 49.06]]]}}, {"type": "Feature", "properties": {"code": "55124", "apl": 3.23, "pop": 299, "communeName": "Consenvoye", "dept": "55", "category": "adequate"}, "geometry": {"type": "Polygon", "coordinates": [[[5.273, 49.293], [5.273, 49.297], [5.326, 49.32], [5.328, 49.319], [5.347, 49.312], [5.353, 49.305], [5.35, 49.296], [5.35, 49.296], [5.301, 49.273], [5.274, 49.284], [5.273, 49.293]]]}}, {"type": "Feature", "properties": {"code": "55128", "apl": 5.9, "pop": 42, "communeName": "Courcelles-sur-Aire", "dept": "55", "category": "well-served"}, "geometry": {"type": "Polygon", "coordinates": [[[5.275, 48.944], [5.27, 48.941], [5.235, 48.924], [5.208, 48.927], [5.192, 48.937], [5.221, 48.954], [5.265, 48.952], [5.275, 48.944]]]}}, {"type": "Feature", "properties": {"code": "55129", "apl": 5.72, "pop": 39, "communeName": "Courouvre", "dept": "55", "category": "well-served"}, "geometry": {"type": "Polygon", "coordinates": [[[5.341, 48.96], [5.358, 48.967], [5.382, 48.935], [5.376, 48.928], [5.352, 48.925], [5.333, 48.937], [5.341, 48.96]]]}}, {"type": "Feature", "properties": {"code": "55137", "apl": 1.29, "pop": 48, "communeName": "Cuisy", "dept": "55", "category": "desert"}, "geometry": {"type": "Polygon", "coordinates": [[[5.201, 49.281], [5.214, 49.268], [5.189, 49.257], [5.163, 49.259], [5.168, 49.27], [5.201, 49.281]]]}}, {"type": "Feature", "properties": {"code": "55140", "apl": 2.84, "pop": 20, "communeName": "Cunel", "dept": "55", "category": "adequate"}, "geometry": {"type": "Polygon", "coordinates": [[[5.126, 49.319], [5.117, 49.315], [5.109, 49.317], [5.107, 49.344], [5.118, 49.347], [5.133, 49.343], [5.126, 49.319]]]}}, {"type": "Feature", "properties": {"code": "55143", "apl": 3.0, "pop": 124, "communeName": "Damloup", "dept": "55", "category": "adequate"}, "geometry": {"type": "Polygon", "coordinates": [[[5.483, 49.188], [5.463, 49.192], [5.491, 49.207], [5.529, 49.204], [5.508, 49.197], [5.483, 49.188]]]}}, {"type": "Feature", "properties": {"code": "55145", "apl": 3.82, "pop": 618, "communeName": "Damvillers", "dept": "55", "category": "adequate"}, "geometry": {"type": "Polygon", "coordinates": [[[5.403, 49.328], [5.387, 49.331], [5.38, 49.341], [5.383, 49.355], [5.432, 49.368], [5.436, 49.361], [5.443, 49.354], [5.45, 49.35], [5.443, 49.318], [5.407, 49.317], [5.403, 49.328]]]}}, {"type": "Feature", "properties": {"code": "55146", "apl": 0.56, "pop": 194, "communeName": "Dannevoux", "dept": "55", "category": "severe"}, "geometry": {"type": "Polygon", "coordinates": [[[5.273, 49.297], [5.273, 49.293], [5.234, 49.298], [5.201, 49.29], [5.171, 49.305], [5.192, 49.311], [5.257, 49.327], [5.273, 49.297]]]}}, {"type": "Feature", "properties": {"code": "55149", "apl": 3.19, "pop": 120, "communeName": "Delut", "dept": "55", "category": "adequate"}, "geometry": {"type": "Polygon", "coordinates": [[[5.452, 49.412], [5.452, 49.407], [5.447, 49.404], [5.447, 49.404], [5.425, 49.396], [5.388, 49.404], [5.429, 49.428], [5.434, 49.427], [5.452, 49.412]]]}}, {"type": "Feature", "properties": {"code": "55153", "apl": 2.72, "pop": 193, "communeName": "Dieppe-sous-Douaumont", "dept": "55", "category": "adequate"}, "geometry": {"type": "Polygon", "coordinates": [[[5.491, 49.207], [5.479, 49.219], [5.508, 49.238], [5.516, 49.24], [5.545, 49.23], [5.559, 49.22], [5.562, 49.214], [5.529, 49.204], [5.491, 49.207]]]}}, {"type": "Feature", "properties": {"code": "55154", "apl": 3.44, "pop": 1449, "communeName": "Dieue-sur-Meuse", "dept": "55", "category": "adequate"}, "geometry": {"type": "Polygon", "coordinates": [[[5.405, 49.094], [5.406, 49.107], [5.436, 49.106], [5.457, 49.06], [5.424, 49.049], [5.414, 49.068], [5.405, 49.094]]]}}, {"type": "Feature", "properties": {"code": "55155", "apl": 4.6, "pop": 384, "communeName": "Dombasle-en-Argonne", "dept": "55", "category": "well-served"}, "geometry": {"type": "Polygon", "coordinates": [[[5.223, 49.156], [5.224, 49.153], [5.197, 49.126], [5.185, 49.124], [5.17, 49.13], [5.183, 49.166], [5.223, 49.156]]]}}, {"type": "Feature", "properties": {"code": "55156", "apl": 4.86, "pop": 138, "communeName": "Dombras", "dept": "55", "category": "well-served"}, "geometry": {"type": "Polygon", "coordinates": [[[5.447, 49.404], [5.474, 49.389], [5.443, 49.354], [5.436, 49.361], [5.425, 49.396], [5.447, 49.404]]]}}, {"type": "Feature", "properties": {"code": "55157", "apl": 2.37, "pop": 51, "communeName": "Dommartin-la-Montagne", "dept": "55", "category": "desert"}, "geometry": {"type": "Polygon", "coordinates": [[[5.582, 49.023], [5.616, 49.04], [5.626, 49.032], [5.602, 49.012], [5.576, 49.013], [5.571, 49.014], [5.582, 49.023]]]}}, {"type": "Feature", "properties": {"code": "55158", "apl": 4.1, "pop": 738, "communeName": "Dommary-Baroncourt", "dept": "55", "category": "well-served"}, "geometry": {"type": "Polygon", "coordinates": [[[5.732, 49.311], [5.75, 49.31], [5.716, 49.291], [5.725, 49.27], [5.721, 49.248], [5.713, 49.247], [5.689, 49.287], [5.696, 49.307], [5.732, 49.311]]]}}, {"type": "Feature", "properties": {"code": "55159", "apl": 3.44, "pop": 358, "communeName": "Dompcevrin", "dept": "55", "category": "adequate"}, "geometry": {"type": "Polygon", "coordinates": [[[5.5, 48.922], [5.432, 48.918], [5.432, 48.918], [5.462, 48.938], [5.498, 48.944], [5.5, 48.922]]]}}, {"type": "Feature", "properties": {"code": "55160", "apl": 2.0, "pop": 37, "communeName": "Dompierre-aux-Bois", "dept": "55", "category": "desert"}, "geometry": {"type": "Polygon", "coordinates": [[[5.578, 48.982], [5.567, 49.002], [5.576, 49.013], [5.602, 49.012], [5.619, 49.003], [5.578, 48.982]]]}}, {"type": "Feature", "properties": {"code": "55162", "apl": 4.1, "pop": 30, "communeName": "Domremy-la-Canne", "dept": "55", "category": "well-served"}, "geometry": {"type": "Polygon", "coordinates": [[[5.684, 49.307], [5.696, 49.307], [5.689, 49.287], [5.686, 49.288], [5.684, 49.307]]]}}, {"type": "Feature", "properties": {"code": "55163", "apl": 3.23, "pop": 60, "communeName": "Doncourt-aux-Templiers", "dept": "55", "category": "adequate"}, "geometry": {"type": "Polygon", "coordinates": [[[5.745, 49.063], [5.745, 49.06], [5.713, 49.047], [5.695, 49.052], [5.703, 49.061], [5.737, 49.073], [5.745, 49.063]]]}}, {"type": "Feature", "properties": {"code": "55165", "apl": 1.9, "pop": 426, "communeName": "Doulcon", "dept": "55", "category": "desert"}, "geometry": {"type": "Polygon", "coordinates": [[[5.129, 49.384], [5.136, 49.399], [5.153, 49.399], [5.18, 49.398], [5.183, 49.384], [5.166, 49.372], [5.133, 49.381], [5.129, 49.384]]]}}, {"type": "Feature", "properties": {"code": "55166", "apl": 4.25, "pop": 1283, "communeName": "Dugny-sur-Meuse", "dept": "55", "category": "well-served"}, "geometry": {"type": "Polygon", "coordinates": [[[5.319, 49.064], [5.355, 49.101], [5.354, 49.123], [5.374, 49.133], [5.41, 49.123], [5.406, 49.107], [5.405, 49.094], [5.36, 49.081], [5.319, 49.064]]]}}, {"type": "Feature", "properties": {"code": "55167", "apl": 1.58, "pop": 613, "communeName": "Dun-sur-Meuse", "dept": "55", "category": "desert"}, "geometry": {"type": "Polygon", "coordinates": [[[5.216, 49.369], [5.19, 49.372], [5.183, 49.384], [5.18, 49.398], [5.189, 49.402], [5.221, 49.374], [5.216, 49.369]]]}}, {"type": "Feature", "properties": {"code": "55168", "apl": 4.13, "pop": 45, "communeName": "Duzey", "dept": "55", "category": "well-served"}, "geometry": {"type": "Polygon", "coordinates": [[[5.624, 49.369], [5.642, 49.371], [5.634, 49.354], [5.591, 49.348], [5.59, 49.348], [5.624, 49.369]]]}}, {"type": "Feature", "properties": {"code": "55170", "apl": 3.54, "pop": 115, "communeName": "Écurey-en-Verdunois", "dept": "55", "category": "adequate"}, "geometry": {"type": "Polygon", "coordinates": [[[5.309, 49.354], [5.325, 49.366], [5.375, 49.365], [5.378, 49.355], [5.31, 49.347], [5.309, 49.354]]]}}, {"type": "Feature", "properties": {"code": "55171", "apl": 3.7, "pop": 261, "communeName": "Eix", "dept": "55", "category": "adequate"}, "geometry": {"type": "Polygon", "coordinates": [[[5.428, 49.165], [5.44, 49.174], [5.483, 49.188], [5.508, 49.197], [5.519, 49.185], [5.514, 49.177], [5.477, 49.166], [5.428, 49.165]]]}}, {"type": "Feature", "properties": {"code": "55172", "apl": 2.1, "pop": 61, "communeName": "Les Éparges", "dept": "55", "category": "desert"}, "geometry": {"type": "Polygon", "coordinates": [[[5.599, 49.054], [5.57, 49.048], [5.557, 49.072], [5.594, 49.079], [5.615, 49.07], [5.599, 49.054]]]}}, {"type": "Feature", "properties": {"code": "55174", "apl": 1.63, "pop": 74, "communeName": "Épinonville", "dept": "55", "category": "desert"}, "geometry": {"type": "Polygon", "coordinates": [[[5.051, 49.267], [5.051, 49.274], [5.059, 49.29], [5.11, 49.288], [5.118, 49.286], [5.104, 49.26], [5.065, 49.257], [5.051, 49.267]]]}}, {"type": "Feature", "properties": {"code": "55177", "apl": 3.7, "pop": 44, "communeName": "Érize-la-Petite", "dept": "55", "category": "adequate"}, "geometry": {"type": "Polygon", "coordinates": [[[5.278, 48.905], [5.273, 48.899], [5.254, 48.908], [5.206, 48.908], [5.205, 48.914], [5.208, 48.927], [5.235, 48.924], [5.278, 48.905]]]}}, {"type": "Feature", "properties": {"code": "55180", "apl": 2.4, "pop": 136, "communeName": "Esnes-en-Argonne", "dept": "55", "category": "desert"}, "geometry": {"type": "Polygon", "coordinates": [[[5.211, 49.228], [5.226, 49.233], [5.233, 49.224], [5.242, 49.206], [5.185, 49.186], [5.165, 49.192], [5.175, 49.215], [5.211, 49.228]]]}}, {"type": "Feature", "properties": {"code": "55181", "apl": 4.3, "pop": 3473, "communeName": "Étain", "dept": "55", "category": "well-served"}, "geometry": {"type": "Polygon", "coordinates": [[[5.622, 49.196], [5.598, 49.194], [5.607, 49.213], [5.641, 49.244], [5.669, 49.235], [5.662, 49.202], [5.622, 49.196]]]}}, {"type": "Feature", "properties": {"code": "55182", "apl": 4.1, "pop": 208, "communeName": "Éton", "dept": "55", "category": "well-served"}, "geometry": {"type": "Polygon", "coordinates": [[[5.686, 49.288], [5.689, 49.287], [5.713, 49.247], [5.687, 49.242], [5.668, 49.255], [5.664, 49.28], [5.667, 49.287], [5.686, 49.288]]]}}, {"type": "Feature", "properties": {"code": "55183", "apl": 3.54, "pop": 37, "communeName": "Étraye", "dept": "55", "category": "adequate"}, "geometry": {"type": "Polygon", "coordinates": [[[5.38, 49.341], [5.387, 49.331], [5.347, 49.312], [5.328, 49.319], [5.343, 49.337], [5.38, 49.341]]]}}, {"type": "Feature", "properties": {"code": "55185", "apl": 1.9, "pop": 89, "communeName": "Èvres", "dept": "55", "category": "desert"}, "geometry": {"type": "Polygon", "coordinates": [[[5.098, 48.989], [5.129, 49.002], [5.163, 48.979], [5.119, 48.962], [5.111, 48.964], [5.098, 48.989]]]}}, {"type": "Feature", "properties": {"code": "55188", "apl": 1.11, "pop": 44, "communeName": "Flassigny", "dept": "55", "category": "desert"}, "geometry": {"type": "Polygon", "coordinates": [[[5.464, 49.482], [5.464, 49.471], [5.416, 49.463], [5.415, 49.482], [5.426, 49.486], [5.456, 49.481], [5.464, 49.482]]]}}, {"type": "Feature", "properties": {"code": "55191", "apl": 3.6, "pop": 224, "communeName": "Foameix-Ornel", "dept": "55", "category": "adequate"}, "geometry": {"type": "Polygon", "coordinates": [[[5.598, 49.218], [5.581, 49.243], [5.583, 49.256], [5.61, 49.257], [5.641, 49.244], [5.607, 49.213], [5.598, 49.218]]]}}, {"type": "Feature", "properties": {"code": "55192", "apl": 0.72, "pop": 38, "communeName": "Fontaines-Saint-Clair", "dept": "55", "category": "severe"}, "geometry": {"type": "Polygon", "coordinates": [[[5.273, 49.374], [5.277, 49.37], [5.274, 49.363], [5.246, 49.356], [5.234, 49.357], [5.216, 49.369], [5.221, 49.374], [5.246, 49.376], [5.273, 49.374]]]}}, {"type": "Feature", "properties": {"code": "55193", "apl": 1.78, "pop": 123, "communeName": "Forges-sur-Meuse", "dept": "55", "category": "desert"}, "geometry": {"type": "Polygon", "coordinates": [[[5.3, 49.248], [5.25, 49.236], [5.244, 49.266], [5.274, 49.284], [5.301, 49.273], [5.315, 49.266], [5.3, 49.248]]]}}, {"type": "Feature", "properties": {"code": "55194", "apl": 2.45, "pop": 61, "communeName": "Foucaucourt-sur-Thabas", "dept": "55", "category": "desert"}, "geometry": {"type": "Polygon", "coordinates": [[[5.129, 49.002], [5.098, 48.989], [5.075, 48.992], [5.066, 49.02], [5.078, 49.025], [5.117, 49.013], [5.128, 49.01], [5.129, 49.002]]]}}, {"type": "Feature", "properties": {"code": "55197", "apl": 5.31, "pop": 165, "communeName": "Fresnes-au-Mont", "dept": "55", "category": "well-served"}, "geometry": {"type": "Polygon", "coordinates": [[[5.432, 48.918], [5.486, 48.9], [5.45, 48.882], [5.427, 48.875], [5.4, 48.905], [5.401, 48.916], [5.407, 48.921], [5.432, 48.918], [5.432, 48.918]]]}}, {"type": "Feature", "properties": {"code": "55198", "apl": 3.97, "pop": 663, "communeName": "Fresnes-en-Woëvre", "dept": "55", "category": "adequate"}, "geometry": {"type": "Polygon", "coordinates": [[[5.612, 49.1], [5.616, 49.119], [5.651, 49.114], [5.658, 49.105], [5.65, 49.088], [5.632, 49.085], [5.616, 49.088], [5.612, 49.1]]]}}, {"type": "Feature", "properties": {"code": "55199", "apl": 5.6, "pop": 86, "communeName": "Froidos", "dept": "55", "category": "well-served"}, "geometry": {"type": "Polygon", "coordinates": [[[5.16, 49.065], [5.16, 49.063], [5.102, 49.049], [5.085, 49.065], [5.142, 49.073], [5.16, 49.065]]]}}, {"type": "Feature", "properties": {"code": "55200", "apl": 4.89, "pop": 209, "communeName": "Fromeréville-les-Vallons", "dept": "55", "category": "well-served"}, "geometry": {"type": "Polygon", "coordinates": [[[5.262, 49.184], [5.271, 49.195], [5.317, 49.19], [5.305, 49.177], [5.329, 49.153], [5.312, 49.137], [5.286, 49.143], [5.256, 49.157], [5.262, 49.184]]]}}, {"type": "Feature", "properties": {"code": "55201", "apl": 4.04, "pop": 63, "communeName": "Fromezey", "dept": "55", "category": "well-served"}, "geometry": {"type": "Polygon", "coordinates": [[[5.598, 49.194], [5.587, 49.196], [5.562, 49.214], [5.559, 49.22], [5.598, 49.218], [5.607, 49.213], [5.598, 49.194]]]}}, {"type": "Feature", "properties": {"code": "55202", "apl": 3.11, "pop": 142, "communeName": "Futeau", "dept": "55", "category": "adequate"}, "geometry": {"type": "Polygon", "coordinates": [[[5.006, 49.06], [5.004, 49.066], [4.998, 49.092], [5.004, 49.092], [5.023, 49.072], [5.006, 49.06]]]}}, {"type": "Feature", "properties": {"code": "55204", "apl": 2.83, "pop": 292, "communeName": "Génicourt-sur-Meuse", "dept": "55", "category": "adequate"}, "geometry": {"type": "Polygon", "coordinates": [[[5.457, 49.06], [5.459, 49.058], [5.468, 49.033], [5.426, 49.03], [5.417, 49.035], [5.424, 49.049], [5.457, 49.06]]]}}, {"type": "Feature", "properties": {"code": "55206", "apl": 1.82, "pop": 115, "communeName": "Gercourt-et-Drillancourt", "dept": "55", "category": "desert"}, "geometry": {"type": "Polygon", "coordinates": [[[5.273, 49.293], [5.274, 49.284], [5.244, 49.266], [5.214, 49.268], [5.201, 49.281], [5.201, 49.29], [5.234, 49.298], [5.273, 49.293]]]}}, {"type": "Feature", "properties": {"code": "55208", "apl": 1.55, "pop": 55, "communeName": "Gesnes-en-Argonne", "dept": "55", "category": "desert"}, "geometry": {"type": "Polygon", "coordinates": [[[5.038, 49.316], [5.087, 49.311], [5.057, 49.293], [5.038, 49.316]]]}}, {"type": "Feature", "properties": {"code": "55211", "apl": 2.69, "pop": 62, "communeName": "Gincrey", "dept": "55", "category": "adequate"}, "geometry": {"type": "Polygon", "coordinates": [[[5.564, 49.286], [5.572, 49.286], [5.583, 49.256], [5.581, 49.243], [5.553, 49.236], [5.544, 49.257], [5.544, 49.268], [5.564, 49.286]]]}}, {"type": "Feature", "properties": {"code": "55216", "apl": 4.49, "pop": 67, "communeName": "Gouraincourt", "dept": "55", "category": "well-served"}, "geometry": {"type": "Polygon", "coordinates": [[[5.686, 49.288], [5.667, 49.287], [5.646, 49.302], [5.662, 49.307], [5.684, 49.307], [5.686, 49.288]]]}}, {"type": "Feature", "properties": {"code": "55218", "apl": 3.26, "pop": 42, "communeName": "Gremilly", "dept": "55", "category": "adequate"}, "geometry": {"type": "Polygon", "coordinates": [[[5.544, 49.268], [5.541, 49.268], [5.531, 49.281], [5.462, 49.262], [5.457, 49.273], [5.517, 49.304], [5.547, 49.292], [5.564, 49.286], [5.544, 49.268]]]}}, {"type": "Feature", "properties": {"code": "55219", "apl": 2.5, "pop": 100, "communeName": "Grimaucourt-en-Woëvre", "dept": "55", "category": "adequate"}, "geometry": {"type": "Polygon", "coordinates": [[[5.583, 49.166], [5.578, 49.146], [5.574, 49.144], [5.549, 49.153], [5.55, 49.156], [5.554, 49.165], [5.567, 49.18], [5.583, 49.166]]]}}, {"type": "Feature", "properties": {"code": "55222", "apl": 3.57, "pop": 33, "communeName": "Gussainville", "dept": "55", "category": "adequate"}, "geometry": {"type": "Polygon", "coordinates": [[[5.646, 49.163], [5.631, 49.168], [5.64, 49.179], [5.657, 49.187], [5.691, 49.176], [5.676, 49.146], [5.646, 49.163]]]}}, {"type": "Feature", "properties": {"code": "55225", "apl": 3.56, "pop": 139, "communeName": "Halles-sous-les-Côtes", "dept": "55", "category": "adequate"}, "geometry": {"type": "Polygon", "coordinates": [[[5.122, 49.43], [5.108, 49.444], [5.144, 49.458], [5.146, 49.449], [5.122, 49.43]]]}}, {"type": "Feature", "properties": {"code": "55226", "apl": 1.95, "pop": 124, "communeName": "Han-lès-Juvigny", "dept": "55", "category": "desert"}, "geometry": {"type": "Polygon", "coordinates": [[[5.327, 49.494], [5.351, 49.496], [5.357, 49.489], [5.302, 49.471], [5.327, 49.494]]]}}, {"type": "Feature", "properties": {"code": "55228", "apl": 4.04, "pop": 536, "communeName": "Hannonville-sous-les-Côtes", "dept": "55", "category": "well-served"}, "geometry": {"type": "Polygon", "coordinates": [[[5.628, 49.005], [5.619, 49.003], [5.602, 49.012], [5.626, 49.032], [5.666, 49.058], [5.703, 49.061], [5.695, 49.052], [5.681, 49.035], [5.649, 49.013], [5.628, 49.005]]]}}, {"type": "Feature", "properties": {"code": "55232", "apl": 2.84, "pop": 113, "communeName": "Harville", "dept": "55", "category": "adequate"}, "geometry": {"type": "Polygon", "coordinates": [[[5.739, 49.076], [5.723, 49.094], [5.699, 49.091], [5.699, 49.095], [5.718, 49.113], [5.732, 49.113], [5.732, 49.112], [5.756, 49.086], [5.739, 49.076]]]}}, {"type": "Feature", "properties": {"code": "55236", "apl": 6.15, "pop": 936, "communeName": "Haudainville", "dept": "55", "category": "well-served"}, "geometry": {"type": "Polygon", "coordinates": [[[5.463, 49.135], [5.436, 49.106], [5.406, 49.107], [5.41, 49.123], [5.4, 49.14], [5.41, 49.144], [5.463, 49.135]]]}}, {"type": "Feature", "properties": {"code": "55237", "apl": 2.7, "pop": 233, "communeName": "Haudiomont", "dept": "55", "category": "adequate"}, "geometry": {"type": "Polygon", "coordinates": [[[5.525, 49.095], [5.521, 49.094], [5.496, 49.121], [5.508, 49.121], [5.537, 49.127], [5.579, 49.132], [5.577, 49.11], [5.525, 49.095]]]}}, {"type": "Feature", "properties": {"code": "55241", "apl": 3.31, "pop": 80, "communeName": "Heippes", "dept": "55", "category": "adequate"}, "geometry": {"type": "Polygon", "coordinates": [[[5.25, 48.983], [5.251, 48.991], [5.257, 49.016], [5.301, 49.01], [5.305, 48.987], [5.266, 48.992], [5.25, 48.983]]]}}, {"type": "Feature", "properties": {"code": "55242", "apl": 3.0, "pop": 112, "communeName": "Hennemont", "dept": "55", "category": "adequate"}, "geometry": {"type": "Polygon", "coordinates": [[[5.694, 49.144], [5.706, 49.142], [5.684, 49.126], [5.653, 49.123], [5.639, 49.144], [5.646, 49.163], [5.676, 49.146], [5.694, 49.144]]]}}, {"type": "Feature", "properties": {"code": "55243", "apl": 4.04, "pop": 180, "communeName": "Herbeuville", "dept": "55", "category": "well-served"}, "geometry": {"type": "Polygon", "coordinates": [[[5.618, 49.05], [5.642, 49.06], [5.663, 49.063], [5.666, 49.058], [5.626, 49.032], [5.616, 49.04], [5.618, 49.05]]]}}, {"type": "Feature", "properties": {"code": "55244", "apl": 4.09, "pop": 225, "communeName": "Herméville-en-Woëvre", "dept": "55", "category": "well-served"}, "geometry": {"type": "Polygon", "coordinates": [[[5.605, 49.156], [5.583, 49.166], [5.567, 49.18], [5.569, 49.187], [5.587, 49.196], [5.598, 49.194], [5.622, 49.196], [5.64, 49.179], [5.631, 49.168], [5.605, 49.156]]]}}, {"type": "Feature", "properties": {"code": "55245", "apl": 3.72, "pop": 166, "communeName": "Heudicourt-sous-les-Côtes", "dept": "55", "category": "adequate"}, "geometry": {"type": "Polygon", "coordinates": [[[5.696, 48.954], [5.731, 48.951], [5.728, 48.922], [5.658, 48.931], [5.696, 48.954]]]}}, {"type": "Feature", "properties": {"code": "55251", "apl": 3.17, "pop": 99, "communeName": "Ippécourt", "dept": "55", "category": "adequate"}, "geometry": {"type": "Polygon", "coordinates": [[[5.184, 49.044], [5.184, 49.045], [5.218, 49.059], [5.231, 49.06], [5.232, 49.058], [5.233, 49.028], [5.232, 49.028], [5.21, 49.017], [5.185, 49.035], [5.184, 49.044]]]}}, {"type": "Feature", "properties": {"code": "55252", "apl": 2.83, "pop": 159, "communeName": "Iré-le-Sec", "dept": "55", "category": "adequate"}, "geometry": {"type": "Polygon", "coordinates": [[[5.396, 49.459], [5.379, 49.463], [5.373, 49.465], [5.376, 49.478], [5.405, 49.488], [5.415, 49.482], [5.416, 49.463], [5.396, 49.459]]]}}, {"type": "Feature", "properties": {"code": "55253", "apl": 4.26, "pop": 700, "communeName": "Les Islettes", "dept": "55", "category": "well-served"}, "geometry": {"type": "Polygon", "coordinates": [[[4.99, 49.125], [5.033, 49.106], [5.004, 49.092], [4.998, 49.092], [4.985, 49.122], [4.99, 49.125]]]}}, {"type": "Feature", "properties": {"code": "55254", "apl": 4.38, "pop": 121, "communeName": "Les Trois-Domaines", "dept": "55", "category": "well-served"}, "geometry": {"type": "Polygon", "coordinates": [[[5.25, 48.983], [5.266, 48.992], [5.305, 48.987], [5.335, 48.97], [5.288, 48.958], [5.275, 48.944], [5.265, 48.952], [5.25, 48.983]]]}}, {"type": "Feature", "properties": {"code": "55255", "apl": 3.46, "pop": 261, "communeName": "Jametz", "dept": "55", "category": "adequate"}, "geometry": {"type": "Polygon", "coordinates": [[[5.378, 49.402], [5.356, 49.412], [5.367, 49.439], [5.401, 49.447], [5.429, 49.428], [5.388, 49.404], [5.378, 49.402]]]}}, {"type": "Feature", "properties": {"code": "55257", "apl": 4.04, "pop": 48, "communeName": "Jouy-en-Argonne", "dept": "55", "category": "well-served"}, "geometry": {"type": "Polygon", "coordinates": [[[5.245, 49.129], [5.202, 49.123], [5.197, 49.126], [5.224, 49.153], [5.245, 49.129]]]}}, {"type": "Feature", "properties": {"code": "55260", "apl": 3.93, "pop": 56, "communeName": "Julvécourt", "dept": "55", "category": "adequate"}, "geometry": {"type": "Polygon", "coordinates": [[[5.16, 49.063], [5.16, 49.065], [5.213, 49.069], [5.218, 49.059], [5.184, 49.045], [5.16, 49.063]]]}}, {"type": "Feature", "properties": {"code": "55262", "apl": 3.13, "pop": 258, "communeName": "Juvigny-sur-Loison", "dept": "55", "category": "adequate"}, "geometry": {"type": "Polygon", "coordinates": [[[5.301, 49.436], [5.296, 49.462], [5.301, 49.47], [5.302, 49.471], [5.357, 49.489], [5.376, 49.478], [5.373, 49.465], [5.301, 49.436]]]}}, {"type": "Feature", "properties": {"code": "55265", "apl": 2.37, "pop": 140, "communeName": "Labeuville", "dept": "55", "category": "desert"}, "geometry": {"type": "Polygon", "coordinates": [[[5.772, 49.105], [5.777, 49.112], [5.808, 49.111], [5.776, 49.084], [5.745, 49.063], [5.737, 49.073], [5.739, 49.076], [5.756, 49.086], [5.772, 49.105]]]}}, {"type": "Feature", "properties": {"code": "55266", "apl": 3.14, "pop": 51, "communeName": "Lachalade", "dept": "55", "category": "adequate"}, "geometry": {"type": "Polygon", "coordinates": [[[4.942, 49.187], [5.01, 49.197], [5.03, 49.176], [5.008, 49.157], [4.966, 49.158], [4.964, 49.155], [4.954, 49.171], [4.942, 49.187]]]}}, {"type": "Feature", "properties": {"code": "55268", "apl": 3.24, "pop": 670, "communeName": "Lacroix-sur-Meuse", "dept": "55", "category": "adequate"}, "geometry": {"type": "Polygon", "coordinates": [[[5.512, 48.955], [5.493, 48.974], [5.476, 48.981], [5.531, 49.005], [5.571, 49.014], [5.576, 49.013], [5.567, 49.002], [5.561, 48.975], [5.55, 48.961], [5.512, 48.955]]]}}, {"type": "Feature", "properties": {"code": "55269", "apl": 4.5, "pop": 74, "communeName": "Lahaymeix", "dept": "55", "category": "well-served"}, "geometry": {"type": "Polygon", "coordinates": [[[5.451, 48.945], [5.462, 48.938], [5.432, 48.918], [5.407, 48.921], [5.376, 48.928], [5.382, 48.935], [5.417, 48.952], [5.451, 48.945]]]}}, {"type": "Feature", "properties": {"code": "55271", "apl": 3.32, "pop": 360, "communeName": "Laheycourt", "dept": "55", "category": "adequate"}, "geometry": {"type": "Polygon", "coordinates": [[[5.017, 48.921], [5.042, 48.93], [5.076, 48.903], [5.041, 48.903], [5.045, 48.884], [5.037, 48.872], [5.02, 48.875], [5.003, 48.907], [5.017, 48.921]]]}}, {"type": "Feature", "properties": {"code": "55274", "apl": 3.6, "pop": 283, "communeName": "Lamorville", "dept": "55", "category": "adequate"}, "geometry": {"type": "Polygon", "coordinates": [[[5.619, 49.003], [5.628, 49.005], [5.642, 48.992], [5.642, 48.968], [5.608, 48.955], [5.583, 48.932], [5.551, 48.923], [5.533, 48.941], [5.55, 48.961], [5.561, 48.975], [5.578, 48.982], [5.619, 49.003]]]}}, {"type": "Feature", "properties": {"code": "55276", "apl": 4.72, "pop": 220, "communeName": "Landrecourt-Lempire", "dept": "55", "category": "well-served"}, "geometry": {"type": "Polygon", "coordinates": [[[5.318, 49.119], [5.336, 49.113], [5.354, 49.123], [5.355, 49.101], [5.319, 49.064], [5.313, 49.063], [5.292, 49.086], [5.298, 49.095], [5.318, 49.119]]]}}, {"type": "Feature", "properties": {"code": "55279", "apl": 2.94, "pop": 446, "communeName": "Laneuville-sur-Meuse", "dept": "55", "category": "adequate"}, "geometry": {"type": "Polygon", "coordinates": [[[5.13, 49.465], [5.141, 49.483], [5.112, 49.5], [5.08, 49.486], [5.06, 49.505], [5.086, 49.52], [5.089, 49.521], [5.124, 49.525], [5.116, 49.516], [5.162, 49.5], [5.176, 49.472], [5.147, 49.469], [5.13, 49.465]]]}}, {"type": "Feature", "properties": {"code": "55280", "apl": 1.97, "pop": 56, "communeName": "Lanhères", "dept": "55", "category": "desert"}, "geometry": {"type": "Polygon", "coordinates": [[[5.729, 49.225], [5.723, 49.199], [5.7, 49.194], [5.695, 49.2], [5.729, 49.225]]]}}, {"type": "Feature", "properties": {"code": "55285", "apl": 3.16, "pop": 148, "communeName": "Lavoye", "dept": "55", "category": "adequate"}, "geometry": {"type": "Polygon", "coordinates": [[[5.184, 49.045], [5.184, 49.044], [5.123, 49.044], [5.101, 49.036], [5.094, 49.036], [5.102, 49.049], [5.16, 49.063], [5.184, 49.045]]]}}, {"type": "Feature", "properties": {"code": "55286", "apl": 5.48, "pop": 236, "communeName": "Lemmes", "dept": "55", "category": "well-served"}, "geometry": {"type": "Polygon", "coordinates": [[[5.284, 49.081], [5.292, 49.086], [5.313, 49.063], [5.308, 49.054], [5.276, 49.05], [5.262, 49.057], [5.284, 49.081]]]}}, {"type": "Feature", "properties": {"code": "55292", "apl": 0.72, "pop": 189, "communeName": "Liny-devant-Dun", "dept": "55", "category": "severe"}, "geometry": {"type": "Polygon", "coordinates": [[[5.19, 49.372], [5.216, 49.369], [5.234, 49.357], [5.201, 49.335], [5.181, 49.357], [5.19, 49.372]]]}}, {"type": "Feature", "properties": {"code": "55293", "apl": 1.58, "pop": 175, "communeName": "Lion-devant-Dun", "dept": "55", "category": "desert"}, "geometry": {"type": "Polygon", "coordinates": [[[5.296, 49.424], [5.294, 49.407], [5.235, 49.4], [5.212, 49.423], [5.265, 49.433], [5.296, 49.424]]]}}, {"type": "Feature", "properties": {"code": "55295", "apl": 2.19, "pop": 30, "communeName": "Lisle-en-Barrois", "dept": "55", "category": "desert"}, "geometry": {"type": "Polygon", "coordinates": [[[5.076, 48.903], [5.042, 48.93], [5.017, 48.921], [5.013, 48.937], [5.014, 48.946], [5.031, 48.954], [5.048, 48.944], [5.117, 48.921], [5.151, 48.925], [5.151, 48.906], [5.124, 48.891], [5.12, 48.896], [5.076, 48.903]]]}}, {"type": "Feature", "properties": {"code": "55297", "apl": 3.54, "pop": 109, "communeName": "Lissey", "dept": "55", "category": "adequate"}, "geometry": {"type": "Polygon", "coordinates": [[[5.325, 49.366], [5.388, 49.399], [5.394, 49.381], [5.375, 49.365], [5.325, 49.366]]]}}, {"type": "Feature", "properties": {"code": "55299", "apl": 2.45, "pop": 119, "communeName": "Loison", "dept": "55", "category": "desert"}, "geometry": {"type": "Polygon", "coordinates": [[[5.547, 49.292], [5.556, 49.308], [5.602, 49.314], [5.615, 49.328], [5.627, 49.325], [5.633, 49.306], [5.601, 49.302], [5.572, 49.286], [5.564, 49.286], [5.547, 49.292]]]}}, {"type": "Feature", "properties": {"code": "55306", "apl": 2.86, "pop": 112, "communeName": "Louppy-sur-Loison", "dept": "55", "category": "adequate"}, "geometry": {"type": "Polygon", "coordinates": [[[5.304, 49.426], [5.301, 49.436], [5.373, 49.465], [5.379, 49.463], [5.354, 49.444], [5.361, 49.43], [5.324, 49.413], [5.319, 49.416], [5.304, 49.426]]]}}, {"type": "Feature", "properties": {"code": "55311", "apl": 2.39, "pop": 26, "communeName": "Maizeray", "dept": "55", "category": "desert"}, "geometry": {"type": "Polygon", "coordinates": [[[5.685, 49.102], [5.684, 49.105], [5.688, 49.113], [5.718, 49.113], [5.699, 49.095], [5.685, 49.102]]]}}, {"type": "Feature", "properties": {"code": "55312", "apl": 3.44, "pop": 163, "communeName": "Maizey", "dept": "55", "category": "adequate"}, "geometry": {"type": "Polygon", "coordinates": [[[5.498, 48.944], [5.499, 48.946], [5.533, 48.941], [5.551, 48.923], [5.583, 48.932], [5.59, 48.921], [5.54, 48.902], [5.533, 48.91], [5.5, 48.922], [5.498, 48.944]]]}}, {"type": "Feature", "properties": {"code": "55313", "apl": 1.29, "pop": 69, "communeName": "Malancourt", "dept": "55", "category": "desert"}, "geometry": {"type": "Polygon", "coordinates": [[[5.189, 49.257], [5.211, 49.228], [5.175, 49.215], [5.141, 49.221], [5.163, 49.259], [5.189, 49.257]]]}}, {"type": "Feature", "properties": {"code": "55316", "apl": 2.96, "pop": 404, "communeName": "Mangiennes", "dept": "55", "category": "adequate"}, "geometry": {"type": "Polygon", "coordinates": [[[5.499, 49.314], [5.498, 49.332], [5.531, 49.376], [5.545, 49.376], [5.578, 49.351], [5.541, 49.339], [5.515, 49.314], [5.499, 49.314]]]}}, {"type": "Feature", "properties": {"code": "55317", "apl": 3.0, "pop": 148, "communeName": "Manheulles", "dept": "55", "category": "adequate"}, "geometry": {"type": "Polygon", "coordinates": [[[5.616, 49.119], [5.612, 49.1], [5.577, 49.11], [5.579, 49.132], [5.573, 49.14], [5.574, 49.144], [5.578, 49.146], [5.616, 49.119]]]}}, {"type": "Feature", "properties": {"code": "55320", "apl": 2.39, "pop": 66, "communeName": "Marchéville-en-Woëvre", "dept": "55", "category": "desert"}, "geometry": {"type": "Polygon", "coordinates": [[[5.699, 49.095], [5.699, 49.091], [5.682, 49.077], [5.657, 49.084], [5.685, 49.102], [5.699, 49.095]]]}}, {"type": "Feature", "properties": {"code": "55321", "apl": 2.53, "pop": 175, "communeName": "Marre", "dept": "55", "category": "adequate"}, "geometry": {"type": "Polygon", "coordinates": [[[5.273, 49.199], [5.297, 49.223], [5.304, 49.221], [5.314, 49.22], [5.33, 49.191], [5.317, 49.19], [5.271, 49.195], [5.273, 49.199]]]}}, {"type": "Feature", "properties": {"code": "55324", "apl": 3.05, "pop": 518, "communeName": "Marville", "dept": "55", "category": "adequate"}, "geometry": {"type": "Polygon", "coordinates": [[[5.47, 49.462], [5.485, 49.445], [5.471, 49.428], [5.469, 49.421], [5.452, 49.412], [5.434, 49.427], [5.396, 49.459], [5.416, 49.463], [5.464, 49.471], [5.47, 49.462]]]}}, {"type": "Feature", "properties": {"code": "55325", "apl": 2.98, "pop": 50, "communeName": "Maucourt-sur-Orne", "dept": "55", "category": "adequate"}, "geometry": {"type": "Polygon", "coordinates": [[[5.541, 49.268], [5.544, 49.268], [5.544, 49.257], [5.516, 49.24], [5.508, 49.238], [5.481, 49.245], [5.541, 49.268]]]}}, {"type": "Feature", "properties": {"code": "55336", "apl": 2.64, "pop": 149, "communeName": "Merles-sur-Loison", "dept": "55", "category": "adequate"}, "geometry": {"type": "Polygon", "coordinates": [[[5.45, 49.35], [5.443, 49.354], [5.474, 49.389], [5.485, 49.383], [5.5, 49.375], [5.473, 49.342], [5.45, 49.35]]]}}, {"type": "Feature", "properties": {"code": "55338", "apl": 2.43, "pop": 147, "communeName": "Milly-sur-Bradon", "dept": "55", "category": "desert"}, "geometry": {"type": "Polygon", "coordinates": [[[5.208, 49.424], [5.212, 49.423], [5.235, 49.4], [5.246, 49.376], [5.221, 49.374], [5.189, 49.402], [5.208, 49.424]]]}}, {"type": "Feature", "properties": {"code": "55339", "apl": 1.8, "pop": 74, "communeName": "Mogeville", "dept": "55", "category": "desert"}, "geometry": {"type": "Polygon", "coordinates": [[[5.553, 49.236], [5.545, 49.23], [5.516, 49.24], [5.544, 49.257], [5.553, 49.236]]]}}, {"type": "Feature", "properties": {"code": "55341", "apl": 3.54, "pop": 117, "communeName": "Moirey-Flabas-Crépion", "dept": "55", "category": "adequate"}, "geometry": {"type": "Polygon", "coordinates": [[[5.413, 49.281], [5.406, 49.276], [5.35, 49.296], [5.353, 49.305], [5.403, 49.328], [5.407, 49.317], [5.419, 49.301], [5.413, 49.281]]]}}, {"type": "Feature", "properties": {"code": "55343", "apl": 1.33, "pop": 57, "communeName": "Montblainville", "dept": "55", "category": "desert"}, "geometry": {"type": "Polygon", "coordinates": [[[4.951, 49.237], [5, 49.261], [5.018, 49.258], [5.025, 49.25], [5.021, 49.234], [4.978, 49.22], [4.951, 49.237], [4.951, 49.237]]]}}, {"type": "Feature", "properties": {"code": "55345", "apl": 1.58, "pop": 100, "communeName": "Mont-devant-Sassey", "dept": "55", "category": "desert"}, "geometry": {"type": "Polygon", "coordinates": [[[5.194, 49.431], [5.193, 49.43], [5.177, 49.405], [5.153, 49.399], [5.136, 49.399], [5.128, 49.405], [5.164, 49.422], [5.194, 49.431]]]}}, {"type": "Feature", "properties": {"code": "55346", "apl": 1.63, "pop": 290, "communeName": "Montfaucon-d'Argonne", "dept": "55", "category": "desert"}, "geometry": {"type": "Polygon", "coordinates": [[[5.163, 49.259], [5.141, 49.221], [5.127, 49.221], [5.104, 49.26], [5.118, 49.286], [5.151, 49.29], [5.168, 49.27], [5.163, 49.259]]]}}, {"type": "Feature", "properties": {"code": "55347", "apl": 2.49, "pop": 333, "communeName": "Les Monthairons", "dept": "55", "category": "desert"}, "geometry": {"type": "Polygon", "coordinates": [[[5.369, 49.023], [5.361, 49.023], [5.35, 49.034], [5.414, 49.068], [5.424, 49.049], [5.417, 49.035], [5.369, 49.023]]]}}, {"type": "Feature", "properties": {"code": "55349", "apl": 2.19, "pop": 124, "communeName": "Montigny-devant-Sassey", "dept": "55", "category": "desert"}, "geometry": {"type": "Polygon", "coordinates": [[[5.128, 49.405], [5.11, 49.416], [5.106, 49.428], [5.122, 49.43], [5.146, 49.449], [5.148, 49.448], [5.164, 49.422], [5.128, 49.405]]]}}, {"type": "Feature", "properties": {"code": "55355", "apl": 2.52, "pop": 155, "communeName": "Montzéville", "dept": "55", "category": "adequate"}, "geometry": {"type": "Polygon", "coordinates": [[[5.151, 49.186], [5.165, 49.192], [5.185, 49.186], [5.242, 49.206], [5.273, 49.199], [5.271, 49.195], [5.262, 49.184], [5.189, 49.171], [5.16, 49.178], [5.151, 49.186]]]}}, {"type": "Feature", "properties": {"code": "55356", "apl": 2.5, "pop": 104, "communeName": "Moranville", "dept": "55", "category": "adequate"}, "geometry": {"type": "Polygon", "coordinates": [[[5.53, 49.168], [5.514, 49.177], [5.519, 49.185], [5.569, 49.187], [5.567, 49.18], [5.554, 49.165], [5.53, 49.168]]]}}, {"type": "Feature", "properties": {"code": "55357", "apl": 3.6, "pop": 107, "communeName": "Morgemoulin", "dept": "55", "category": "adequate"}, "geometry": {"type": "Polygon", "coordinates": [[[5.581, 49.243], [5.598, 49.218], [5.559, 49.22], [5.545, 49.23], [5.553, 49.236], [5.581, 49.243]]]}}, {"type": "Feature", "properties": {"code": "55360", "apl": 2.0, "pop": 108, "communeName": "Mouilly", "dept": "55", "category": "desert"}, "geometry": {"type": "Polygon", "coordinates": [[[5.556, 49.041], [5.536, 49.041], [5.508, 49.042], [5.531, 49.069], [5.557, 49.072], [5.57, 49.048], [5.556, 49.041]]]}}, {"type": "Feature", "properties": {"code": "55361", "apl": 3.73, "pop": 131, "communeName": "Moulainville", "dept": "55", "category": "adequate"}, "geometry": {"type": "Polygon", "coordinates": [[[5.51, 49.155], [5.486, 49.143], [5.431, 49.165], [5.428, 49.165], [5.477, 49.166], [5.514, 49.177], [5.53, 49.168], [5.51, 49.155]]]}}, {"type": "Feature", "properties": {"code": "55363", "apl": 2.51, "pop": 89, "communeName": "Moulotte", "dept": "55", "category": "adequate"}, "geometry": {"type": "Polygon", "coordinates": [[[5.732, 49.112], [5.755, 49.114], [5.772, 49.105], [5.756, 49.086], [5.732, 49.112]]]}}, {"type": "Feature", "properties": {"code": "55364", "apl": 3.31, "pop": 656, "communeName": "Mouzay", "dept": "55", "category": "adequate"}, "geometry": {"type": "Polygon", "coordinates": [[[5.301, 49.436], [5.304, 49.426], [5.296, 49.424], [5.265, 49.433], [5.212, 49.423], [5.208, 49.424], [5.193, 49.43], [5.194, 49.431], [5.185, 49.452], [5.205, 49.481], [5.228, 49.483], [5.26, 49.462], [5.296, 49.462], [5.301, 49.436]]]}}, {"type": "Feature", "properties": {"code": "55365", "apl": 1.58, "pop": 139, "communeName": "Murvaux", "dept": "55", "category": "desert"}, "geometry": {"type": "Polygon", "coordinates": [[[5.235, 49.4], [5.294, 49.407], [5.296, 49.424], [5.304, 49.426], [5.319, 49.416], [5.273, 49.374], [5.246, 49.376], [5.235, 49.4]]]}}, {"type": "Feature", "properties": {"code": "55367", "apl": 3.03, "pop": 130, "communeName": "Muzeray", "dept": "55", "category": "adequate"}, "geometry": {"type": "Polygon", "coordinates": [[[5.654, 49.333], [5.627, 49.325], [5.615, 49.328], [5.591, 49.348], [5.634, 49.354], [5.646, 49.337], [5.654, 49.333]]]}}, {"type": "Feature", "properties": {"code": "55375", "apl": 1.78, "pop": 63, "communeName": "Nantillois", "dept": "55", "category": "desert"}, "geometry": {"type": "Polygon", "coordinates": [[[5.117, 49.315], [5.126, 49.319], [5.159, 49.299], [5.151, 49.29], [5.118, 49.286], [5.11, 49.288], [5.117, 49.315]]]}}, {"type": "Feature", "properties": {"code": "55379", "apl": 3.44, "pop": 60, "communeName": "Le Neufour", "dept": "55", "category": "adequate"}, "geometry": {"type": "Polygon", "coordinates": [[[4.988, 49.135], [4.99, 49.125], [4.985, 49.122], [4.979, 49.129], [4.975, 49.133], [4.988, 49.135]]]}}, {"type": "Feature", "properties": {"code": "55380", "apl": 4.04, "pop": 51, "communeName": "Neuville-en-Verdunois", "dept": "55", "category": "well-served"}, "geometry": {"type": "Polygon", "coordinates": [[[5.335, 48.97], [5.341, 48.96], [5.333, 48.937], [5.308, 48.928], [5.27, 48.941], [5.275, 48.944], [5.288, 48.958], [5.335, 48.97]]]}}, {"type": "Feature", "properties": {"code": "55383", "apl": 5.14, "pop": 221, "communeName": "Neuvilly-en-Argonne", "dept": "55", "category": "well-served"}, "geometry": {"type": "Polygon", "coordinates": [[[5.031, 49.138], [5.02, 49.144], [4.966, 49.158], [5.008, 49.157], [5.03, 49.176], [5.102, 49.183], [5.087, 49.16], [5.036, 49.148], [5.031, 49.138]]]}}, {"type": "Feature", "properties": {"code": "55385", "apl": 5.14, "pop": 498, "communeName": "Nixéville-Blercourt", "dept": "55", "category": "well-served"}, "geometry": {"type": "Polygon", "coordinates": [[[5.202, 49.123], [5.245, 49.129], [5.287, 49.124], [5.318, 49.119], [5.298, 49.095], [5.263, 49.094], [5.197, 49.11], [5.202, 49.123]]]}}, {"type": "Feature", "properties": {"code": "55386", "apl": 4.4, "pop": 223, "communeName": "Nonsard-Lamarche", "dept": "55", "category": "well-served"}, "geometry": {"type": "Polygon", "coordinates": [[[5.728, 48.922], [5.731, 48.951], [5.755, 48.962], [5.8, 48.946], [5.779, 48.925], [5.747, 48.916], [5.733, 48.912], [5.728, 48.922]]]}}, {"type": "Feature", "properties": {"code": "55387", "apl": 4.13, "pop": 243, "communeName": "Nouillonpont", "dept": "55", "category": "well-served"}, "geometry": {"type": "Polygon", "coordinates": [[[5.642, 49.371], [5.656, 49.377], [5.694, 49.357], [5.646, 49.337], [5.634, 49.354], [5.642, 49.371]]]}}, {"type": "Feature", "properties": {"code": "55388", "apl": 3.77, "pop": 275, "communeName": "Noyers-Auzécourt", "dept": "55", "category": "adequate"}, "geometry": {"type": "Polygon", "coordinates": [[[5.003, 48.907], [5.02, 48.875], [5.001, 48.865], [4.96, 48.859], [4.948, 48.892], [4.97, 48.91], [5.003, 48.907]]]}}, {"type": "Feature", "properties": {"code": "55389", "apl": 2.61, "pop": 244, "communeName": "Nubécourt", "dept": "55", "category": "adequate"}, "geometry": {"type": "Polygon", "coordinates": [[[5.21, 49.017], [5.223, 48.992], [5.167, 48.978], [5.163, 48.979], [5.129, 49.002], [5.128, 49.01], [5.14, 49.024], [5.185, 49.035], [5.21, 49.017]]]}}, {"type": "Feature", "properties": {"code": "55394", "apl": 2.08, "pop": 7, "communeName": "Ornes", "dept": "55", "category": "desert"}, "geometry": {"type": "Polygon", "coordinates": [[[5.431, 49.262], [5.457, 49.273], [5.462, 49.262], [5.531, 49.281], [5.541, 49.268], [5.481, 49.245], [5.442, 49.236], [5.422, 49.234], [5.426, 49.25], [5.431, 49.262]]]}}, {"type": "Feature", "properties": {"code": "55395", "apl": 1.63, "pop": 56, "communeName": "Osches", "dept": "55", "category": "desert"}, "geometry": {"type": "Polygon", "coordinates": [[[5.233, 49.028], [5.232, 49.058], [5.262, 49.057], [5.276, 49.05], [5.263, 49.031], [5.233, 49.028]]]}}, {"type": "Feature", "properties": {"code": "55399", "apl": 2.59, "pop": 113, "communeName": "Pareid", "dept": "55", "category": "adequate"}, "geometry": {"type": "Polygon", "coordinates": [[[5.688, 49.113], [5.684, 49.126], [5.706, 49.142], [5.719, 49.133], [5.732, 49.113], [5.718, 49.113], [5.688, 49.113]]]}}, {"type": "Feature", "properties": {"code": "55400", "apl": 3.37, "pop": 43, "communeName": "Parfondrupt", "dept": "55", "category": "adequate"}, "geometry": {"type": "Polygon", "coordinates": [[[5.717, 49.165], [5.754, 49.139], [5.719, 49.133], [5.706, 49.142], [5.694, 49.144], [5.717, 49.165]]]}}, {"type": "Feature", "properties": {"code": "55401", "apl": 4.78, "pop": 417, "communeName": "Les Paroches", "dept": "55", "category": "well-served"}, "geometry": {"type": "Polygon", "coordinates": [[[5.486, 48.9], [5.432, 48.918], [5.5, 48.922], [5.533, 48.91], [5.486, 48.9]]]}}, {"type": "Feature", "properties": {"code": "55403", "apl": 4.1, "pop": 61, "communeName": "Peuvillers", "dept": "55", "category": "well-served"}, "geometry": {"type": "Polygon", "coordinates": [[[5.378, 49.355], [5.375, 49.365], [5.394, 49.381], [5.432, 49.368], [5.383, 49.355], [5.378, 49.355]]]}}, {"type": "Feature", "properties": {"code": "55405", "apl": 2.65, "pop": 250, "communeName": "Pillon", "dept": "55", "category": "adequate"}, "geometry": {"type": "Polygon", "coordinates": [[[5.59, 49.348], [5.578, 49.351], [5.545, 49.376], [5.558, 49.394], [5.6, 49.384], [5.624, 49.369], [5.59, 49.348]]]}}, {"type": "Feature", "properties": {"code": "55406", "apl": 3.0, "pop": 107, "communeName": "Pintheville", "dept": "55", "category": "adequate"}, "geometry": {"type": "Polygon", "coordinates": [[[5.651, 49.114], [5.653, 49.123], [5.684, 49.126], [5.688, 49.113], [5.684, 49.105], [5.658, 49.105], [5.651, 49.114]]]}}, {"type": "Feature", "properties": {"code": "55409", "apl": 1.9, "pop": 62, "communeName": "Pretz-en-Argonne", "dept": "55", "category": "desert"}, "geometry": {"type": "Polygon", "coordinates": [[[5.171, 48.956], [5.152, 48.937], [5.119, 48.962], [5.163, 48.979], [5.167, 48.978], [5.171, 48.956]]]}}, {"type": "Feature", "properties": {"code": "55410", "apl": 2.39, "pop": 131, "communeName": "Quincy-Landzécourt", "dept": "55", "category": "desert"}, "geometry": {"type": "Polygon", "coordinates": [[[5.301, 49.47], [5.264, 49.487], [5.263, 49.499], [5.281, 49.507], [5.312, 49.508], [5.327, 49.494], [5.302, 49.471], [5.301, 49.47]]]}}, {"type": "Feature", "properties": {"code": "55411", "apl": 3.31, "pop": 93, "communeName": "Rambluzin-et-Benoite-Vaux", "dept": "55", "category": "adequate"}, "geometry": {"type": "Polygon", "coordinates": [[[5.341, 48.96], [5.335, 48.97], [5.305, 48.987], [5.301, 49.01], [5.343, 49.011], [5.364, 48.972], [5.366, 48.97], [5.358, 48.967], [5.341, 48.96]]]}}, {"type": "Feature", "properties": {"code": "55415", "apl": 1.89, "pop": 89, "communeName": "Ranzières", "dept": "55", "category": "desert"}, "geometry": {"type": "Polygon", "coordinates": [[[5.508, 49.042], [5.536, 49.041], [5.52, 49.014], [5.488, 49.005], [5.473, 49.017], [5.469, 49.033], [5.508, 49.042]]]}}, {"type": "Feature", "properties": {"code": "55416", "apl": 4.74, "pop": 215, "communeName": "Rarécourt", "dept": "55", "category": "well-served"}, "geometry": {"type": "Polygon", "coordinates": [[[5.085, 49.065], [5.032, 49.066], [5.111, 49.091], [5.145, 49.081], [5.142, 49.073], [5.085, 49.065]]]}}, {"type": "Feature", "properties": {"code": "55419", "apl": 4.31, "pop": 154, "communeName": "Récicourt", "dept": "55", "category": "well-served"}, "geometry": {"type": "Polygon", "coordinates": [[[5.189, 49.171], [5.183, 49.166], [5.17, 49.13], [5.14, 49.137], [5.136, 49.155], [5.152, 49.175], [5.16, 49.178], [5.189, 49.171]]]}}, {"type": "Feature", "properties": {"code": "55420", "apl": 3.91, "pop": 72, "communeName": "Récourt-le-Creux", "dept": "55", "category": "adequate"}, "geometry": {"type": "Polygon", "coordinates": [[[5.369, 49.023], [5.41, 49.01], [5.388, 48.982], [5.364, 48.972], [5.343, 49.011], [5.361, 49.023], [5.369, 49.023]]]}}, {"type": "Feature", "properties": {"code": "55422", "apl": 0.0, "pop": 50, "communeName": "Regnéville-sur-Meuse", "dept": "55", "category": "severe"}, "geometry": {"type": "Polygon", "coordinates": [[[5.327, 49.25], [5.303, 49.243], [5.3, 49.248], [5.315, 49.266], [5.323, 49.263], [5.327, 49.25]]]}}, {"type": "Feature", "properties": {"code": "55423", "apl": 2.2, "pop": 315, "communeName": "Rembercourt-Sommaisne", "dept": "55", "category": "desert"}, "geometry": {"type": "Polygon", "coordinates": [[[5.152, 48.937], [5.171, 48.956], [5.192, 48.937], [5.208, 48.927], [5.205, 48.914], [5.18, 48.885], [5.151, 48.906], [5.151, 48.925], [5.152, 48.937]]]}}, {"type": "Feature", "properties": {"code": "55425", "apl": 2.86, "pop": 131, "communeName": "Remoiville", "dept": "55", "category": "adequate"}, "geometry": {"type": "Polygon", "coordinates": [[[5.379, 49.463], [5.396, 49.459], [5.434, 49.427], [5.429, 49.428], [5.401, 49.447], [5.367, 49.439], [5.356, 49.412], [5.345, 49.411], [5.324, 49.413], [5.361, 49.43], [5.354, 49.444], [5.379, 49.463]]]}}, {"type": "Feature", "properties": {"code": "55428", "apl": 3.54, "pop": 128, "communeName": "Réville-aux-Bois", "dept": "55", "category": "adequate"}, "geometry": {"type": "Polygon", "coordinates": [[[5.328, 49.319], [5.326, 49.32], [5.303, 49.347], [5.31, 49.347], [5.378, 49.355], [5.383, 49.355], [5.38, 49.341], [5.343, 49.337], [5.328, 49.319]]]}}, {"type": "Feature", "properties": {"code": "55429", "apl": 3.0, "pop": 50, "communeName": "Riaville", "dept": "55", "category": "adequate"}, "geometry": {"type": "Polygon", "coordinates": [[[5.684, 49.105], [5.685, 49.102], [5.657, 49.084], [5.65, 49.088], [5.658, 49.105], [5.684, 49.105]]]}}, {"type": "Feature", "properties": {"code": "55431", "apl": 1.15, "pop": 56, "communeName": "Richecourt", "dept": "55", "category": "desert"}, "geometry": {"type": "Polygon", "coordinates": [[[5.735, 48.9], [5.733, 48.912], [5.747, 48.916], [5.753, 48.913], [5.749, 48.901], [5.778, 48.876], [5.765, 48.873], [5.731, 48.881], [5.735, 48.9]]]}}, {"type": "Feature", "properties": {"code": "55437", "apl": 3.54, "pop": 122, "communeName": "Romagne-sous-les-Côtes", "dept": "55", "category": "adequate"}, "geometry": {"type": "Polygon", "coordinates": [[[5.498, 49.332], [5.499, 49.314], [5.449, 49.309], [5.443, 49.318], [5.45, 49.35], [5.473, 49.342], [5.498, 49.332]]]}}, {"type": "Feature", "properties": {"code": "55438", "apl": 2.84, "pop": 181, "communeName": "Romagne-sous-Montfaucon", "dept": "55", "category": "adequate"}, "geometry": {"type": "Polygon", "coordinates": [[[5.087, 49.311], [5.038, 49.316], [5.03, 49.326], [5.028, 49.332], [5.107, 49.344], [5.109, 49.317], [5.087, 49.311]]]}}, {"type": "Feature", "properties": {"code": "55439", "apl": 2.7, "pop": 100, "communeName": "Ronvaux", "dept": "55", "category": "adequate"}, "geometry": {"type": "Polygon", "coordinates": [[[5.573, 49.14], [5.579, 49.132], [5.537, 49.127], [5.573, 49.14]]]}}, {"type": "Feature", "properties": {"code": "55443", "apl": 3.71, "pop": 590, "communeName": "Rouvres-en-Woëvre", "dept": "55", "category": "adequate"}, "geometry": {"type": "Polygon", "coordinates": [[[5.741, 49.23], [5.729, 49.225], [5.695, 49.2], [5.667, 49.198], [5.662, 49.202], [5.669, 49.235], [5.687, 49.242], [5.713, 49.247], [5.721, 49.248], [5.725, 49.245], [5.741, 49.23]]]}}, {"type": "Feature", "properties": {"code": "55444", "apl": 3.44, "pop": 202, "communeName": "Rouvrois-sur-Meuse", "dept": "55", "category": "adequate"}, "geometry": {"type": "Polygon", "coordinates": [[[5.499, 48.946], [5.512, 48.955], [5.55, 48.961], [5.533, 48.941], [5.499, 48.946]]]}}, {"type": "Feature", "properties": {"code": "55445", "apl": 4.13, "pop": 192, "communeName": "Rouvrois-sur-Othain", "dept": "55", "category": "well-served"}, "geometry": {"type": "Polygon", "coordinates": [[[5.656, 49.377], [5.642, 49.371], [5.624, 49.369], [5.6, 49.384], [5.613, 49.409], [5.654, 49.388], [5.656, 49.377]]]}}, {"type": "Feature", "properties": {"code": "55449", "apl": 2.25, "pop": 284, "communeName": "Rupt-en-Woëvre", "dept": "55", "category": "desert"}, "geometry": {"type": "Polygon", "coordinates": [[[5.521, 49.094], [5.525, 49.095], [5.531, 49.069], [5.508, 49.042], [5.469, 49.033], [5.468, 49.033], [5.459, 49.058], [5.521, 49.094]]]}}, {"type": "Feature", "properties": {"code": "55450", "apl": 4.72, "pop": 47, "communeName": "Rupt-sur-Othain", "dept": "55", "category": "well-served"}, "geometry": {"type": "Polygon", "coordinates": [[[5.447, 49.404], [5.452, 49.407], [5.469, 49.421], [5.471, 49.428], [5.498, 49.424], [5.497, 49.408], [5.447, 49.404]]]}}, {"type": "Feature", "properties": {"code": "55453", "apl": 1.54, "pop": 62, "communeName": "Saint-André-en-Barrois", "dept": "55", "category": "desert"}, "geometry": {"type": "Polygon", "coordinates": [[[5.21, 49.017], [5.232, 49.028], [5.257, 49.016], [5.251, 48.991], [5.223, 48.992], [5.21, 49.017]]]}}, {"type": "Feature", "properties": {"code": "55457", "apl": 3.36, "pop": 183, "communeName": "Saint-Hilaire-en-Woëvre", "dept": "55", "category": "adequate"}, "geometry": {"type": "Polygon", "coordinates": [[[5.699, 49.091], [5.723, 49.094], [5.739, 49.076], [5.737, 49.073], [5.703, 49.061], [5.666, 49.058], [5.663, 49.063], [5.682, 49.077], [5.699, 49.091]]]}}, {"type": "Feature", "properties": {"code": "55458", "apl": 3.37, "pop": 384, "communeName": "Saint-Jean-lès-Buzy", "dept": "55", "category": "adequate"}, "geometry": {"type": "Polygon", "coordinates": [[[5.754, 49.139], [5.717, 49.165], [5.75, 49.199], [5.757, 49.201], [5.766, 49.198], [5.746, 49.157], [5.759, 49.149], [5.756, 49.143], [5.754, 49.139]]]}}, {"type": "Feature", "properties": {"code": "55461", "apl": 4.0, "pop": 451, "communeName": "Saint-Laurent-sur-Othain", "dept": "55", "category": "well-served"}, "geometry": {"type": "Polygon", "coordinates": [[[5.485, 49.383], [5.505, 49.406], [5.568, 49.42], [5.558, 49.394], [5.545, 49.376], [5.531, 49.376], [5.5, 49.375], [5.485, 49.383]]]}}, {"type": "Feature", "properties": {"code": "55462", "apl": 4.31, "pop": 348, "communeName": "Saint-Maurice-sous-les-Côtes", "dept": "55", "category": "well-served"}, "geometry": {"type": "Polygon", "coordinates": [[[5.684, 49.033], [5.708, 49.018], [5.642, 48.992], [5.628, 49.005], [5.649, 49.013], [5.684, 49.033]]]}}, {"type": "Feature", "properties": {"code": "55463", "apl": 3.26, "pop": 3924, "communeName": "Saint-Mihiel", "dept": "55", "category": "adequate"}, "geometry": {"type": "Polygon", "coordinates": [[[5.54, 48.902], [5.59, 48.921], [5.632, 48.904], [5.634, 48.881], [5.629, 48.875], [5.603, 48.868], [5.548, 48.875], [5.525, 48.87], [5.515, 48.885], [5.54, 48.902]]]}}, {"type": "Feature", "properties": {"code": "55464", "apl": 3.75, "pop": 152, "communeName": "Saint-Pierrevillers", "dept": "55", "category": "adequate"}, "geometry": {"type": "Polygon", "coordinates": [[[5.687, 49.394], [5.708, 49.384], [5.712, 49.363], [5.694, 49.357], [5.656, 49.377], [5.654, 49.388], [5.687, 49.394]]]}}, {"type": "Feature", "properties": {"code": "55465", "apl": 3.07, "pop": 100, "communeName": "Saint-Remy-la-Calonne", "dept": "55", "category": "adequate"}, "geometry": {"type": "Polygon", "coordinates": [[[5.582, 49.023], [5.556, 49.041], [5.57, 49.048], [5.599, 49.054], [5.618, 49.05], [5.616, 49.04], [5.582, 49.023]]]}}, {"type": "Feature", "properties": {"code": "55468", "apl": 2.69, "pop": 100, "communeName": "Samogneux", "dept": "55", "category": "adequate"}, "geometry": {"type": "Polygon", "coordinates": [[[5.323, 49.263], [5.339, 49.271], [5.38, 49.256], [5.376, 49.255], [5.327, 49.25], [5.323, 49.263]]]}}, {"type": "Feature", "properties": {"code": "55469", "apl": 2.43, "pop": 91, "communeName": "Sassey-sur-Meuse", "dept": "55", "category": "desert"}, "geometry": {"type": "Polygon", "coordinates": [[[5.193, 49.43], [5.208, 49.424], [5.189, 49.402], [5.18, 49.398], [5.153, 49.399], [5.177, 49.405], [5.193, 49.43]]]}}, {"type": "Feature", "properties": {"code": "55471", "apl": 2.43, "pop": 81, "communeName": "Saulmory-Villefranche", "dept": "55", "category": "desert"}, "geometry": {"type": "Polygon", "coordinates": [[[5.184, 49.453], [5.185, 49.452], [5.194, 49.431], [5.164, 49.422], [5.148, 49.448], [5.184, 49.453]]]}}, {"type": "Feature", "properties": {"code": "55473", "apl": 3.07, "pop": 109, "communeName": "Saulx-lès-Champlon", "dept": "55", "category": "adequate"}, "geometry": {"type": "Polygon", "coordinates": [[[5.682, 49.077], [5.663, 49.063], [5.642, 49.06], [5.628, 49.077], [5.632, 49.085], [5.65, 49.088], [5.657, 49.084], [5.682, 49.077]]]}}, {"type": "Feature", "properties": {"code": "55481", "apl": 3.72, "pop": 311, "communeName": "Senon", "dept": "55", "category": "adequate"}, "geometry": {"type": "Polygon", "coordinates": [[[5.583, 49.256], [5.572, 49.286], [5.601, 49.302], [5.633, 49.306], [5.646, 49.302], [5.667, 49.287], [5.664, 49.28], [5.61, 49.257], [5.583, 49.256]]]}}, {"type": "Feature", "properties": {"code": "55482", "apl": 3.56, "pop": 102, "communeName": "Senoncourt-les-Maujouy", "dept": "55", "category": "adequate"}, "geometry": {"type": "Polygon", "coordinates": [[[5.319, 49.064], [5.36, 49.081], [5.376, 49.056], [5.346, 49.034], [5.308, 49.054], [5.313, 49.063], [5.319, 49.064]]]}}, {"type": "Feature", "properties": {"code": "55484", "apl": 1.29, "pop": 47, "communeName": "Septsarges", "dept": "55", "category": "desert"}, "geometry": {"type": "Polygon", "coordinates": [[[5.159, 49.299], [5.171, 49.305], [5.201, 49.29], [5.201, 49.281], [5.168, 49.27], [5.151, 49.29], [5.159, 49.299]]]}}, {"type": "Feature", "properties": {"code": "55487", "apl": 2.8, "pop": 86, "communeName": "Seuzey", "dept": "55", "category": "adequate"}, "geometry": {"type": "Polygon", "coordinates": [[[5.567, 49.002], [5.578, 48.982], [5.561, 48.975], [5.567, 49.002]]]}}, {"type": "Feature", "properties": {"code": "55489", "apl": 3.69, "pop": 277, "communeName": "Sivry-la-Perche", "dept": "55", "category": "adequate"}, "geometry": {"type": "Polygon", "coordinates": [[[5.224, 49.153], [5.223, 49.156], [5.256, 49.157], [5.286, 49.143], [5.287, 49.124], [5.245, 49.129], [5.224, 49.153]]]}}, {"type": "Feature", "properties": {"code": "55490", "apl": 1.98, "pop": 335, "communeName": "Sivry-sur-Meuse", "dept": "55", "category": "desert"}, "geometry": {"type": "Polygon", "coordinates": [[[5.246, 49.356], [5.274, 49.363], [5.303, 49.347], [5.326, 49.32], [5.273, 49.297], [5.257, 49.327], [5.246, 49.356]]]}}, {"type": "Feature", "properties": {"code": "55492", "apl": 2.5, "pop": 974, "communeName": "Sommedieue", "dept": "55", "category": "adequate"}, "geometry": {"type": "Polygon", "coordinates": [[[5.475, 49.138], [5.496, 49.121], [5.521, 49.094], [5.459, 49.058], [5.457, 49.06], [5.436, 49.106], [5.463, 49.135], [5.475, 49.138]]]}}, {"type": "Feature", "properties": {"code": "55493", "apl": 3.79, "pop": 181, "communeName": "Sommeilles", "dept": "55", "category": "adequate"}, "geometry": {"type": "Polygon", "coordinates": [[[4.916, 48.9], [4.937, 48.921], [4.954, 48.931], [5.013, 48.937], [5.017, 48.921], [5.003, 48.907], [4.97, 48.91], [4.948, 48.892], [4.916, 48.9]]]}}, {"type": "Feature", "properties": {"code": "55495", "apl": 2.65, "pop": 238, "communeName": "Sorbey", "dept": "55", "category": "adequate"}, "geometry": {"type": "Polygon", "coordinates": [[[5.568, 49.42], [5.57, 49.422], [5.607, 49.419], [5.613, 49.409], [5.6, 49.384], [5.558, 49.394], [5.568, 49.42]]]}}, {"type": "Feature", "properties": {"code": "55497", "apl": 5.43, "pop": 319, "communeName": "Les Souhesmes-Rampont", "dept": "55", "category": "well-served"}, "geometry": {"type": "Polygon", "coordinates": [[[5.195, 49.11], [5.197, 49.11], [5.263, 49.094], [5.298, 49.095], [5.292, 49.086], [5.284, 49.081], [5.248, 49.074], [5.231, 49.06], [5.218, 49.059], [5.213, 49.069], [5.197, 49.093], [5.195, 49.11]]]}}, {"type": "Feature", "properties": {"code": "55498", "apl": 2.96, "pop": 439, "communeName": "Souilly", "dept": "55", "category": "adequate"}, "geometry": {"type": "Polygon", "coordinates": [[[5.232, 49.028], [5.233, 49.028], [5.263, 49.031], [5.276, 49.05], [5.308, 49.054], [5.346, 49.034], [5.35, 49.034], [5.361, 49.023], [5.343, 49.011], [5.301, 49.01], [5.257, 49.016], [5.232, 49.028]]]}}, {"type": "Feature", "properties": {"code": "55500", "apl": 4.54, "pop": 818, "communeName": "Spincourt", "dept": "55", "category": "well-served"}, "geometry": {"type": "Polygon", "coordinates": [[[5.739, 49.346], [5.737, 49.339], [5.732, 49.311], [5.696, 49.307], [5.684, 49.307], [5.662, 49.307], [5.654, 49.333], [5.646, 49.337], [5.694, 49.357], [5.712, 49.363], [5.732, 49.361], [5.739, 49.346]]]}}, {"type": "Feature", "properties": {"code": "55505", "apl": 4.35, "pop": 3179, "communeName": "Thierville-sur-Meuse", "dept": "55", "category": "well-served"}, "geometry": {"type": "Polygon", "coordinates": [[[5.317, 49.19], [5.33, 49.191], [5.349, 49.182], [5.38, 49.172], [5.329, 49.153], [5.305, 49.177], [5.317, 49.19]]]}}, {"type": "Feature", "properties": {"code": "55506", "apl": 4.04, "pop": 30, "communeName": "Thillombois", "dept": "55", "category": "well-served"}, "geometry": {"type": "Polygon", "coordinates": [[[5.39, 48.972], [5.409, 48.968], [5.417, 48.952], [5.382, 48.935], [5.358, 48.967], [5.366, 48.97], [5.39, 48.972]]]}}, {"type": "Feature", "properties": {"code": "55507", "apl": 4.31, "pop": 210, "communeName": "Thillot", "dept": "55", "category": "well-served"}, "geometry": {"type": "Polygon", "coordinates": [[[5.684, 49.033], [5.649, 49.013], [5.681, 49.035], [5.684, 49.033]]]}}, {"type": "Feature", "properties": {"code": "55512", "apl": 2.57, "pop": 279, "communeName": "Tilly-sur-Meuse", "dept": "55", "category": "adequate"}, "geometry": {"type": "Polygon", "coordinates": [[[5.445, 49.012], [5.455, 49], [5.39, 48.972], [5.366, 48.97], [5.364, 48.972], [5.388, 48.982], [5.41, 49.01], [5.426, 49.019], [5.445, 49.012]]]}}, {"type": "Feature", "properties": {"code": "55515", "apl": 2.1, "pop": 69, "communeName": "Trésauvaux", "dept": "55", "category": "desert"}, "geometry": {"type": "Polygon", "coordinates": [[[5.615, 49.07], [5.594, 49.079], [5.616, 49.088], [5.632, 49.085], [5.628, 49.077], [5.615, 49.07]]]}}, {"type": "Feature", "properties": {"code": "55517", "apl": 1.59, "pop": 517, "communeName": "Seuil-d'Argonne", "dept": "55", "category": "desert"}, "geometry": {"type": "Polygon", "coordinates": [[[5.048, 48.944], [5.031, 48.954], [5.039, 48.974], [4.996, 48.983], [5.032, 49.001], [5.075, 48.992], [5.098, 48.989], [5.111, 48.964], [5.093, 48.969], [5.063, 48.94], [5.048, 48.944]]]}}, {"type": "Feature", "properties": {"code": "55521", "apl": 2.57, "pop": 233, "communeName": "Troyon", "dept": "55", "category": "adequate"}, "geometry": {"type": "Polygon", "coordinates": [[[5.455, 49], [5.445, 49.012], [5.473, 49.017], [5.488, 49.005], [5.52, 49.014], [5.531, 49.005], [5.476, 48.981], [5.461, 48.988], [5.455, 49]]]}}, {"type": "Feature", "properties": {"code": "55523", "apl": 3.9, "pop": 190, "communeName": "Vacherauville", "dept": "55", "category": "adequate"}, "geometry": {"type": "Polygon", "coordinates": [[[5.372, 49.246], [5.391, 49.23], [5.364, 49.219], [5.314, 49.22], [5.304, 49.221], [5.341, 49.225], [5.372, 49.246]]]}}, {"type": "Feature", "properties": {"code": "55525", "apl": 4.88, "pop": 75, "communeName": "Vadelaincourt", "dept": "55", "category": "well-served"}, "geometry": {"type": "Polygon", "coordinates": [[[5.232, 49.058], [5.231, 49.06], [5.248, 49.074], [5.284, 49.081], [5.262, 49.057], [5.232, 49.058]]]}}, {"type": "Feature", "properties": {"code": "55527", "apl": 2.79, "pop": 633, "communeName": "Varennes-en-Argonne", "dept": "55", "category": "adequate"}, "geometry": {"type": "Polygon", "coordinates": [[[5.025, 49.25], [5.042, 49.247], [5.04, 49.221], [4.991, 49.211], [4.978, 49.22], [5.021, 49.234], [5.025, 49.25]]]}}, {"type": "Feature", "properties": {"code": "55530", "apl": 4.23, "pop": 94, "communeName": "Valbois", "dept": "55", "category": "well-served"}, "geometry": {"type": "Polygon", "coordinates": [[[5.583, 48.932], [5.608, 48.955], [5.658, 48.932], [5.632, 48.904], [5.59, 48.921], [5.583, 48.932]]]}}, {"type": "Feature", "properties": {"code": "55532", "apl": 1.56, "pop": 313, "communeName": "Vaubecourt", "dept": "55", "category": "desert"}, "geometry": {"type": "Polygon", "coordinates": [[[5.119, 48.962], [5.152, 48.937], [5.151, 48.925], [5.117, 48.921], [5.048, 48.944], [5.063, 48.94], [5.093, 48.969], [5.111, 48.964], [5.119, 48.962]]]}}, {"type": "Feature", "properties": {"code": "55535", "apl": 3.54, "pop": 85, "communeName": "Vaudoncourt", "dept": "55", "category": "adequate"}, "geometry": {"type": "Polygon", "coordinates": [[[5.627, 49.325], [5.654, 49.333], [5.662, 49.307], [5.646, 49.302], [5.633, 49.306], [5.627, 49.325]]]}}, {"type": "Feature", "properties": {"code": "55536", "apl": 2.22, "pop": 21, "communeName": "Vauquois", "dept": "55", "category": "desert"}, "geometry": {"type": "Polygon", "coordinates": [[[5.101, 49.203], [5.116, 49.196], [5.102, 49.183], [5.054, 49.206], [5.08, 49.215], [5.101, 49.203]]]}}, {"type": "Feature", "properties": {"code": "55537", "apl": 2.1, "pop": 79, "communeName": "Douaumont-Vaux", "dept": "55", "category": "desert"}, "geometry": {"type": "Polygon", "coordinates": [[[5.479, 49.219], [5.491, 49.207], [5.463, 49.192], [5.447, 49.214], [5.42, 49.207], [5.414, 49.226], [5.422, 49.234], [5.442, 49.236], [5.448, 49.217], [5.479, 49.219]]]}}, {"type": "Feature", "properties": {"code": "55540", "apl": 1.02, "pop": 59, "communeName": "Vaux-lès-Palameix", "dept": "55", "category": "desert"}, "geometry": {"type": "Polygon", "coordinates": [[[5.556, 49.041], [5.582, 49.023], [5.571, 49.014], [5.531, 49.005], [5.52, 49.014], [5.536, 49.041], [5.556, 49.041]]]}}, {"type": "Feature", "properties": {"code": "55545", "apl": 4.22, "pop": 16689, "communeName": "Verdun", "dept": "55", "category": "well-served"}, "geometry": {"type": "Polygon", "coordinates": [[[5.44, 49.174], [5.428, 49.165], [5.431, 49.165], [5.41, 49.144], [5.4, 49.14], [5.357, 49.134], [5.336, 49.113], [5.318, 49.119], [5.287, 49.124], [5.286, 49.143], [5.312, 49.137], [5.329, 49.153], [5.38, 49.172], [5.439, 49.174], [5.44, 49.174]]]}}, {"type": "Feature", "properties": {"code": "55549", "apl": 1.65, "pop": 86, "communeName": "Véry", "dept": "55", "category": "desert"}, "geometry": {"type": "Polygon", "coordinates": [[[5.05, 49.251], [5.065, 49.257], [5.104, 49.26], [5.127, 49.221], [5.116, 49.21], [5.084, 49.239], [5.05, 49.251]]]}}, {"type": "Feature", "properties": {"code": "55552", "apl": 1.24, "pop": 81, "communeName": "Vigneul-sous-Montmédy", "dept": "55", "category": "desert"}, "geometry": {"type": "Polygon", "coordinates": [[[5.351, 49.496], [5.327, 49.494], [5.312, 49.508], [5.324, 49.519], [5.344, 49.52], [5.351, 49.496]]]}}, {"type": "Feature", "properties": {"code": "55556", "apl": 3.54, "pop": 49, "communeName": "Ville-devant-Chaumont", "dept": "55", "category": "adequate"}, "geometry": {"type": "Polygon", "coordinates": [[[5.425, 49.276], [5.413, 49.281], [5.419, 49.301], [5.446, 49.302], [5.425, 49.276]]]}}, {"type": "Feature", "properties": {"code": "55557", "apl": 4.75, "pop": 127, "communeName": "Ville-en-Woëvre", "dept": "55", "category": "well-served"}, "geometry": {"type": "Polygon", "coordinates": [[[5.653, 49.123], [5.651, 49.114], [5.616, 49.119], [5.578, 49.146], [5.583, 49.166], [5.605, 49.156], [5.639, 49.144], [5.653, 49.123]]]}}, {"type": "Feature", "properties": {"code": "55561", "apl": 2.95, "pop": 51, "communeName": "Villers-devant-Dun", "dept": "55", "category": "adequate"}, "geometry": {"type": "Polygon", "coordinates": [[[5.136, 49.399], [5.129, 49.384], [5.104, 49.39], [5.11, 49.416], [5.128, 49.405], [5.136, 49.399]]]}}, {"type": "Feature", "properties": {"code": "55563", "apl": 3.28, "pop": 74, "communeName": "Villers-lès-Mangiennes", "dept": "55", "category": "adequate"}, "geometry": {"type": "Polygon", "coordinates": [[[5.473, 49.342], [5.5, 49.375], [5.531, 49.376], [5.498, 49.332], [5.473, 49.342]]]}}, {"type": "Feature", "properties": {"code": "55565", "apl": 3.29, "pop": 76, "communeName": "Villers-sous-Pareid", "dept": "55", "category": "adequate"}, "geometry": {"type": "Polygon", "coordinates": [[[5.755, 49.114], [5.732, 49.112], [5.732, 49.113], [5.719, 49.133], [5.754, 49.139], [5.756, 49.143], [5.772, 49.14], [5.755, 49.114]]]}}, {"type": "Feature", "properties": {"code": "55566", "apl": 3.17, "pop": 291, "communeName": "Villers-sur-Meuse", "dept": "55", "category": "adequate"}, "geometry": {"type": "Polygon", "coordinates": [[[5.41, 49.01], [5.369, 49.023], [5.417, 49.035], [5.426, 49.03], [5.426, 49.019], [5.41, 49.01]]]}}, {"type": "Feature", "properties": {"code": "55567", "apl": 4.11, "pop": 140, "communeName": "Ville-sur-Cousances", "dept": "55", "category": "well-served"}, "geometry": {"type": "Polygon", "coordinates": [[[5.16, 49.065], [5.142, 49.073], [5.145, 49.081], [5.197, 49.093], [5.213, 49.069], [5.16, 49.065]]]}}, {"type": "Feature", "properties": {"code": "55571", "apl": 1.98, "pop": 245, "communeName": "Vilosnes-Haraumont", "dept": "55", "category": "desert"}, "geometry": {"type": "MultiPolygon", "coordinates": [[[[5.192, 49.311], [5.201, 49.335], [5.234, 49.357], [5.246, 49.356], [5.257, 49.327], [5.192, 49.311]]], [[[5.309, 49.354], [5.31, 49.347], [5.303, 49.347], [5.274, 49.363], [5.309, 49.354]]]]}}, {"type": "Feature", "properties": {"code": "55572", "apl": 4.09, "pop": 90, "communeName": "Vittarville", "dept": "55", "category": "well-served"}, "geometry": {"type": "Polygon", "coordinates": [[[5.378, 49.402], [5.388, 49.404], [5.425, 49.396], [5.436, 49.361], [5.432, 49.368], [5.394, 49.381], [5.388, 49.399], [5.378, 49.402]]]}}, {"type": "Feature", "properties": {"code": "55577", "apl": 3.68, "pop": 56, "communeName": "Waly", "dept": "55", "category": "adequate"}, "geometry": {"type": "Polygon", "coordinates": [[[5.094, 49.036], [5.101, 49.036], [5.117, 49.013], [5.078, 49.025], [5.094, 49.036]]]}}, {"type": "Feature", "properties": {"code": "55578", "apl": 4.09, "pop": 184, "communeName": "Warcq", "dept": "55", "category": "well-served"}, "geometry": {"type": "Polygon", "coordinates": [[[5.667, 49.198], [5.657, 49.187], [5.64, 49.179], [5.622, 49.196], [5.662, 49.202], [5.667, 49.198]]]}}, {"type": "Feature", "properties": {"code": "55579", "apl": 3.22, "pop": 100, "communeName": "Watronville", "dept": "55", "category": "adequate"}, "geometry": {"type": "Polygon", "coordinates": [[[5.574, 49.144], [5.573, 49.14], [5.537, 49.127], [5.508, 49.121], [5.549, 49.153], [5.574, 49.144]]]}}, {"type": "Feature", "properties": {"code": "55580", "apl": 3.82, "pop": 50, "communeName": "Wavrille", "dept": "55", "category": "adequate"}, "geometry": {"type": "Polygon", "coordinates": [[[5.387, 49.331], [5.403, 49.328], [5.353, 49.305], [5.347, 49.312], [5.387, 49.331]]]}}, {"type": "Feature", "properties": {"code": "55582", "apl": 3.04, "pop": 88, "communeName": "Wiseppe", "dept": "55", "category": "adequate"}, "geometry": {"type": "Polygon", "coordinates": [[[5.176, 49.472], [5.184, 49.453], [5.148, 49.448], [5.146, 49.449], [5.144, 49.458], [5.147, 49.469], [5.176, 49.472]]]}}, {"type": "Feature", "properties": {"code": "55583", "apl": 4.2, "pop": 208, "communeName": "Woël", "dept": "55", "category": "well-served"}, "geometry": {"type": "Polygon", "coordinates": [[[5.745, 49.06], [5.778, 49.052], [5.744, 49.021], [5.723, 49.021], [5.713, 49.047], [5.745, 49.06]]]}}, {"type": "Feature", "properties": {"code": "55584", "apl": 4.45, "pop": 127, "communeName": "Woimbey", "dept": "55", "category": "well-served"}, "geometry": {"type": "Polygon", "coordinates": [[[5.476, 48.981], [5.493, 48.974], [5.451, 48.945], [5.417, 48.952], [5.409, 48.968], [5.461, 48.988], [5.476, 48.981]]]}}]}