{"type":"FeatureCollection","features":[{"type":"Feature","geometry":{"coordinates":[[[2.3095442488686984,48.85395570137276],[2.3103252642134207,48.853915813301796],[2.311402683832613,48.853860772314746],[2.3121415828130445,48.85382301331689],[2.3127638443737126,48.8537813062513],[2.3133548816389906,48.853741674162116],[2.3147278810886474,48.85364961775306],[2.3145116171944125,48.851832953093194],[2.3160863646158467,48.85178483737961],[2.317116844215245,48.85175332779237],[2.3190371385684734,48.85169457909175],[2.3195735142182983,48.850526892132756],[2.319945730936887,48.84971645501447],[2.320541154362716,48.84841994298978],[2.3201776292435694,48.84823128662935],[2.320083676432844,48.84818013040264],[2.319738944820942,48.84802155606043],[2.319355218615322,48.847845042333375],[2.3190790591859813,48.84773439186506],[2.318202671004696,48.84739913895775],[2.318043155176078,48.84733812095446],[2.3170319482712185,48.846985271739115],[2.3165715258984174,48.84682461011661],[2.3160975091794307,48.8466630424579],[2.3153494010528717,48.84643246591881],[2.314242523339231,48.84609130161861],[2.3139130088690667,48.84598973503706],[2.3137298735981724,48.84593328656335],[2.3136412809578535,48.845990046203234],[2.312091028580115,48.846983212758936],[2.3119776439577198,48.84705584892898],[2.311767710510266,48.847190337298855],[2.3116258489828403,48.84728121836178],[2.3114866325583123,48.847368856083776],[2.3112608358194935,48.84751099665855],[2.311155377296785,48.84757938949667],[2.310525953513878,48.84798758363991],[2.3103782515087548,48.847952187860045],[2.310329327269935,48.84794046326014],[2.3095374262123882,48.847750686421385],[2.308806011593627,48.84757539801545],[2.308219888290114,48.847434925901986],[2.3080419605349447,48.8473922537555],[2.307339708993143,48.84713937769472],[2.3061493113666667,48.84789994583815],[2.305829097592603,48.848105056860284],[2.3045556517924513,48.848920737118966],[2.3037460479254377,48.84943929064908],[2.3020590771728533,48.8505254935876],[2.3012272074419418,48.85106109010971],[2.3009646527358574,48.85123014805055],[2.3014987869432275,48.851591743506155],[2.3022058071127787,48.852070389190075],[2.3025532647737954,48.852307129893035],[2.30374587880467,48.85311965854572],[2.303891643969565,48.85321898642564],[2.3047951295117723,48.85384122596803],[2.3055011012255475,48.85432740836372],[2.306462721274527,48.854128750771324],[2.3071674166820375,48.85408918737216],[2.3085401294522923,48.85401210257039],[2.3095442488686984,48.85395570137276]]],"type":"Polygon"},"properties":{"no_consqrt":"027","nom_quart":"ECOLE MILITAIRE","nar":7,"surface":807473.75736205,"centroid":{"lon":2.3110302153462343,"lat":48.85035732572665}}},{"type":"Feature","geometry":{"coordinates":[[[2.332910099203854,48.85934960705053],[2.33259225630499,48.85877382491774],[2.3325336222970727,48.85866760646648],[2.3324457976110042,48.858508506954806],[2.333260662347701,48.85826614550915],[2.333265988697766,48.85826456084959],[2.333248549636101,48.85824313466106],[2.333245762562998,48.85823970969001],[2.3332429741388667,48.85823628381197],[2.333215819918612,48.85820292035273],[2.3327500571881274,48.85763064588324],[2.3322713252984544,48.85704561151079],[2.3316728681669145,48.856314246971905],[2.331145683621857,48.85562331111817],[2.3308411438850727,48.85519875011937],[2.330786418009868,48.85510728550686],[2.3307005429249017,48.85496376287146],[2.330457888762933,48.854460243424946],[2.330432690483257,48.85441707908063],[2.330390591439773,48.85434992968422],[2.3293784441284724,48.8527354630558],[2.3293099160411708,48.85261396800672],[2.3286296578962347,48.85201169124874],[2.3284185667447446,48.851824795640525],[2.3278728318994326,48.85173596943278],[2.3271931400602246,48.85162533447337],[2.326865727976553,48.85140840165529],[2.3266387356070344,48.851261529157206],[2.325273597561204,48.85069666188125],[2.3245967166057446,48.850418244346905],[2.324139715998034,48.85023026626895],[2.323286536325197,48.84982576941741],[2.322898105111865,48.84963489968276],[2.3221335100027707,48.84924973447202],[2.320541154362716,48.84841994298978],[2.319945730936887,48.84971645501447],[2.3195735142182983,48.850526892132756],[2.3190371385684734,48.85169457909175],[2.3190257133876027,48.85171924821917],[2.3190141209589568,48.85174388761369],[2.319103287100145,48.85275468872059],[2.319206688088093,48.8530211019382],[2.3192128738592084,48.8530367616664],[2.319218995432565,48.853052432720425],[2.319665029182091,48.85420909520399],[2.3199501466038432,48.854949132130216],[2.3211206903481556,48.85647455547732],[2.322427448736047,48.85778939729552],[2.3227934707718365,48.85815766775125],[2.3231293172510616,48.85850842674293],[2.3238006266125555,48.85921218770118],[2.32459171348867,48.86003232193701],[2.3253675815702812,48.86077493034186],[2.3255509427689818,48.86095041983713],[2.325628857134603,48.86102499235481],[2.326102282109705,48.8614780635541],[2.3270676399402075,48.86114585105721],[2.3283115325955346,48.86073713622665],[2.3283271739897797,48.860731178585795],[2.3295236589746042,48.86026806661502],[2.329815339510959,48.860164845196046],[2.329839227973671,48.860156364997145],[2.329856102967105,48.86015037539148],[2.329863004020697,48.86014793452755],[2.3298637091448455,48.86014768845673],[2.329904495269685,48.86013325563593],[2.3299089834475466,48.86013158099518],[2.332910099203854,48.85934960705053]]],"type":"Polygon"},"properties":{"no_consqrt":"025","nom_quart":"SAINT - THOMAS D'AQUIN","nar":7,"surface":826743.76363364,"centroid":{"lon":2.325588141644405,"lat":48.85526379836179}}},{"type":"Feature","geometry":{"coordinates":[[[2.309659471384576,48.85496543576129],[2.3095442488686984,48.85395570137276],[2.3085401294522923,48.85401210257039],[2.3071674166820375,48.85408918737216],[2.306462721274527,48.854128750771324],[2.3055011012255475,48.85432740836372],[2.3047951295117723,48.85384122596803],[2.303891643969565,48.85321898642564],[2.30374587880467,48.85311965854572],[2.3025532647737954,48.852307129893035],[2.3022058071127787,48.852070389190075],[2.3014987869432275,48.851591743506155],[2.3009646527358574,48.85123014805055],[2.300924518916194,48.851203286199194],[2.3008839120693714,48.85117613287476],[2.3002791484521636,48.85156275281076],[2.2993223088898174,48.85217442822457],[2.29918321574955,48.85226334454375],[2.2983558777818236,48.85279221184142],[2.2979234187874367,48.85306865010468],[2.297388894467771,48.853411641719944],[2.2969485415299444,48.85369420141338],[2.2966296139108486,48.85389884144692],[2.2959295276951726,48.854348047594044],[2.2958680520972035,48.85438749145387],[2.295745709643004,48.85446598963949],[2.2955397852894794,48.854597902288376],[2.2953666282420917,48.85470882495305],[2.2940364587359054,48.85556089576607],[2.2930791787394544,48.85617407770553],[2.29293532226058,48.85626502245174],[2.291919536974942,48.85691325324593],[2.2910339765826238,48.857478357529956],[2.2907809980171345,48.85763978855226],[2.2907022748569807,48.85769001237327],[2.2906212484537627,48.85774171362003],[2.2906163826333943,48.85774481813218],[2.2906115154372184,48.857747923535314],[2.2906017246883854,48.857754169081794],[2.290596825875269,48.857757294082695],[2.2905919256865386,48.85776041997462],[2.2905821266945843,48.85776666996734],[2.2905788186560008,48.857768780031485],[2.290578001953478,48.857769301313134],[2.2905771852631833,48.85776982169547],[2.2905723277002794,48.85777291995923],[2.290562530054263,48.85777917085765],[2.2905527310553584,48.857785420847875],[2.2905491136643783,48.85778772783488],[2.2905486764416785,48.8577880067412],[2.290548081093943,48.85778838723669],[2.2905473647614056,48.85778884435951],[2.2905429347552797,48.857791672651985],[2.290541973677979,48.85779228661045],[2.290541594209745,48.85779252808623],[2.290540252289139,48.85779338441165],[2.290533139815633,48.85779792446333],[2.2905282409821446,48.85780105036062],[2.2905233421479676,48.8578041762577],[2.2905135458285906,48.85781042895854],[2.290503750881993,48.85781668076739],[2.2904988534077613,48.857819806671486],[2.2904939545700587,48.85782293256731],[2.2904841596187597,48.85782918437447],[2.2904792621421777,48.85783231027774],[2.2904743633022244,48.8578354361727],[2.290464566958744,48.8578416897687],[2.2904596694799126,48.85784481567111],[2.2904547706252605,48.857847942464566],[2.290444975664558,48.85785419426838],[2.290440078183275,48.85785732016995],[2.29043517933862,48.857860446063256],[2.2904253830102284,48.85786669785731],[2.2904187861099783,48.857870909096796],[2.290415588030227,48.857872950557905],[2.2904118688688837,48.85787532348954],[2.290411276293916,48.85787570040335],[2.290405791709483,48.85787920145102],[2.29039599671243,48.8578854550492],[2.2903862003747375,48.85789170683992],[2.2903804861799273,48.857895354019234],[2.290379795959368,48.85789579510746],[2.290378852779177,48.857896395680385],[2.290376404034693,48.8578979586298],[2.2903666076922975,48.85790421041884],[2.290361710201612,48.85790733631709],[2.290356811347552,48.85791046220703],[2.2903470163632416,48.8579167140025],[2.290341801268003,48.85792004217025],[2.2903410890449063,48.85792049751747],[2.2903407315398434,48.857920727431164],[2.29033809990292,48.857922408909545],[2.2903377176580224,48.8579226539656],[2.2903372254039995,48.85792297031776],[2.2903274209117215,48.8579292193571],[2.2898410450502564,48.85823957333172],[2.289839105010592,48.858240811023826],[2.2898735474656564,48.858268021279734],[2.291251449316663,48.85935283904187],[2.291558699169454,48.859610179451984],[2.2915591425286683,48.85961055261078],[2.291559637128034,48.859610966543926],[2.2917780931640777,48.859781459680526],[2.2919544499457114,48.859909489408246],[2.2926812575611133,48.860437114442405],[2.29361304238257,48.86112065426979],[2.2939167861250476,48.86132955521729],[2.294195765489305,48.86152113884389],[2.2943208264418247,48.86158971184243],[2.2946606027436234,48.8617615954473],[2.295089769292542,48.86196229014403],[2.2954253429459297,48.8621076473226],[2.2955572311641896,48.862169115615394],[2.2958868152545917,48.862314375044996],[2.2960146168131024,48.86236846567024],[2.2961522687598412,48.86242202051613],[2.296188424333614,48.862436683039824],[2.2962245785769815,48.86245134464505],[2.296365882978675,48.8625052813577],[2.296383269977932,48.86251128243215],[2.296521218371364,48.862560099900826],[2.2965575194477545,48.862571875346845],[2.296558198003062,48.86257209697845],[2.2965590434893217,48.86257237265299],[2.296570586048065,48.86257611794765],[2.2965890418471218,48.862582516491706],[2.2965901828866437,48.86258291081891],[2.296590589925269,48.86258305081215],[2.296624366059855,48.862594763731124],[2.2967167148806804,48.862624015566304],[2.296747985580189,48.86263391951964],[2.2967833914035407,48.8626451752058],[2.296830120652298,48.86266086286683],[2.2968372663923393,48.86266325845552],[2.296837742677773,48.86266341864048],[2.296843205727061,48.8626652548382],[2.2970544139647275,48.862734838234275],[2.2972425960942844,48.86279268440505],[2.297430508756709,48.862850529591825],[2.2974335537129766,48.862851354185665],[2.2974349457862533,48.862851732890704],[2.2974355786255396,48.86285190838192],[2.2975432035976273,48.86288275475964],[2.297921354423243,48.86298370095846],[2.298573842319958,48.8631331094409],[2.2986219486661197,48.86314459010172],[2.298670053670456,48.863156070735066],[2.29894942143224,48.863216776030136],[2.299228107948812,48.863268892372474],[2.2992317998575404,48.86326965865298],[2.299236392802038,48.86327032228721],[2.2995128832117726,48.86331022360845],[2.299775975699911,48.86334821841682],[2.299778597333784,48.8633485970935],[2.2997821318539318,48.863349107020376],[2.299783695037522,48.863349332909905],[2.299784750786005,48.863349483882395],[2.299785758913816,48.86334962828082],[2.299786477938701,48.863349781779924],[2.2997887745658936,48.86335000116842],[2.300074599051629,48.86338107650591],[2.300478427994613,48.863416280973475],[2.301070052021385,48.86344880548868],[2.3011179272878457,48.863451459360725],[2.3015900592874234,48.8634743564905],[2.3015936625363476,48.86347441888827],[2.3017277806060563,48.8634766953092],[2.3017560588859007,48.86347717507087],[2.301920326403112,48.86347996173321],[2.3019463478999396,48.86348040130557],[2.3020303098934933,48.863481773269775],[2.305379187935046,48.86353840044667],[2.3053798012194893,48.863538409402295],[2.305380434949083,48.86353841847663],[2.305615668871212,48.863541969878476],[2.3102641735317717,48.86362470208027],[2.310271816046015,48.863624843255465],[2.3102797065698244,48.86362499035621],[2.3102981178122306,48.86362533209048],[2.31033372376621,48.86362595997526],[2.3103862994518543,48.863626878994154],[2.3104190673330782,48.86303084479416],[2.3104326889874223,48.862783368178086],[2.3104143369048646,48.86258394842734],[2.3103976410814693,48.86240255217149],[2.310279833276819,48.86112246549609],[2.3101757921157553,48.8599385433778],[2.3100057630584327,48.85806891385155],[2.309916553728171,48.85724483363592],[2.3098306976603338,48.85645179982739],[2.3097758946647997,48.855985689490616],[2.309659471384576,48.85496543576129]]],"type":"Polygon"},"properties":{"no_consqrt":"028","nom_quart":"GROS CAILLOU","nar":7,"surface":1381720.69705612,"centroid":{"lon":2.301540313598241,"lat":48.85829997710334}}},{"type":"Feature","geometry":{"coordinates":[[[2.320902896562542,48.863057446619905],[2.3209413634059763,48.863045522780595],[2.321063185437435,48.863008284806],[2.324732480698256,48.861886599865116],[2.324733910787353,48.86188616185712],[2.324734814010065,48.861885884557815],[2.3247355913379777,48.861885645220184],[2.3252307866928237,48.861731759067695],[2.3252371998342545,48.86172976719408],[2.325279728997547,48.861717450261736],[2.326102282109705,48.8614780635541],[2.325628857134603,48.86102499235481],[2.3255509427689818,48.86095041983713],[2.3253675815702812,48.86077493034186],[2.32459171348867,48.86003232193701],[2.3238006266125555,48.85921218770118],[2.3231293172510616,48.85850842674293],[2.3227934707718365,48.85815766775125],[2.322427448736047,48.85778939729552],[2.3211206903481556,48.85647455547732],[2.3199501466038432,48.854949132130216],[2.319665029182091,48.85420909520399],[2.319218995432565,48.853052432720425],[2.3192128738592084,48.8530367616664],[2.319206688088093,48.8530211019382],[2.319103287100145,48.85275468872059],[2.3190141209589568,48.85174388761369],[2.3190257133876027,48.85171924821917],[2.3190371385684734,48.85169457909175],[2.317116844215245,48.85175332779237],[2.3160863646158467,48.85178483737961],[2.3145116171944125,48.851832953093194],[2.3147278810886474,48.85364961775306],[2.3133548816389906,48.853741674162116],[2.3127638443737126,48.8537813062513],[2.3121415828130445,48.85382301331689],[2.311402683832613,48.853860772314746],[2.3103252642134207,48.853915813301796],[2.3095442488686984,48.85395570137276],[2.309659471384576,48.85496543576129],[2.3097758946647997,48.855985689490616],[2.3098306976603338,48.85645179982739],[2.309916553728171,48.85724483363592],[2.3100057630584327,48.85806891385155],[2.3101757921157553,48.8599385433778],[2.310279833276819,48.86112246549609],[2.3103976410814693,48.86240255217149],[2.3104143369048646,48.86258394842734],[2.3104326889874223,48.862783368178086],[2.3104190673330782,48.86303084479416],[2.3103862994518543,48.863626878994154],[2.3133331560016477,48.863677734920444],[2.313543566059973,48.863681363031105],[2.3152888938013043,48.86371144188116],[2.3152893912327372,48.863711450123226],[2.315289913186723,48.863711459404854],[2.316406146479132,48.86373061298975],[2.318472737942572,48.86377736150741],[2.318539119607862,48.8637755702797],[2.3186067276446702,48.863769643598054],[2.318675293964827,48.86375787836671],[2.3187416690056195,48.863743144463726],[2.3194272068676467,48.863525262788144],[2.319471654359501,48.86351115024232],[2.319516092215731,48.86349704302124],[2.3196444705761485,48.863456331816195],[2.3196448278261332,48.863456218730505],[2.3196452316182237,48.863456090620424],[2.319659978893476,48.86345141420317],[2.3197760462612504,48.8634146025963],[2.3198205586943152,48.86340040844893],[2.3198650601755633,48.86338621602145],[2.3203161292385306,48.86324288266244],[2.3203165823068326,48.86324273864168],[2.320321898571205,48.863241056473996],[2.320902339026846,48.863057553176795],[2.320902896562542,48.863057446619905]]],"type":"Polygon"},"properties":{"no_consqrt":"026","nom_quart":"INVALIDES","nar":7,"surface":1074391.66410143,"centroid":{"lon":2.3164422436026615,"lat":48.85851242435647}}}]}